{
"type": "FeatureCollection",
"name": "hole16_basemap",
"crs": { "type": "name", "properties": { "name": "urn:ogc:def:crs:OGC:1.3:CRS84" } },
"features": [
{ "type": "Feature", "properties": { "kind": "rough" }, "geometry": { "type": "Polygon", "coordinates": [ [ [ -93.3874707, 44.8651501 ], [ -93.3874365, 44.865165899999987 ], [ -93.3873753, 44.8651894 ], [ -93.3873513, 44.8651905 ], [ -93.3873313, 44.8651828 ], [ -93.3872788, 44.865166 ], [ -93.387239, 44.8651402 ], [ -93.3871982, 44.8651174 ], [ -93.3871595, 44.8650926 ], [ -93.3871152, 44.8650551 ], [ -93.3870671, 44.8650145 ], [ -93.3870338, 44.8649907 ], [ -93.3869945, 44.8649663 ], [ -93.3869812, 44.86495020000001 ], [ -93.3869673, 44.8649243 ], [ -93.386976, 44.8648966 ], [ -93.3869963, 44.86486750000001 ], [ -93.3870159, 44.8648431 ], [ -93.3870379, 44.86482070000001 ], [ -93.3870733, 44.8647999 ], [ -93.3871086, 44.864783 ], [ -93.3871335, 44.8647684 ], [ -93.3871769, 44.8647705 ], [ -93.387204400000016, 44.864787 ], [ -93.3872565, 44.8648248 ], [ -93.3872805, 44.8648214 ], [ -93.3873076, 44.8647996 ], [ -93.3873134, 44.8648444 ], [ -93.38732, 44.8648724 ], [ -93.3873326, 44.8648978 ], [ -93.3873506, 44.8649325 ], [ -93.3873813, 44.8649653 ], [ -93.3874573, 44.8650294 ], [ -93.387482500000019, 44.8650647 ], [ -93.3874939, 44.8650934 ], [ -93.3874924, 44.8651271 ], [ -93.3874923, 44.8651424 ], [ -93.3874921, 44.8651629 ], [ -93.3874707, 44.8651501 ] ] ] } },
{ "type": "Feature", "properties": { "kind": "rough" }, "geometry": { "type": "Polygon", "coordinates": [ [ [ -93.3847707, 44.8625965 ], [ -93.3848339, 44.8626316 ], [ -93.3848858, 44.86267680000001 ], [ -93.3849391, 44.8627237 ], [ -93.384983, 44.8627693 ], [ -93.385011, 44.8628292 ], [ -93.3850654, 44.8628968 ], [ -93.3851282, 44.8629497 ], [ -93.385191500000019, 44.8629957 ], [ -93.3852861, 44.8630237 ], [ -93.3853694, 44.863046 ], [ -93.3854296, 44.8630579 ], [ -93.3854922, 44.8630684 ], [ -93.3855477, 44.8630886 ], [ -93.3856322, 44.863124 ], [ -93.3856597, 44.863156699999983 ], [ -93.3857655, 44.8632065 ], [ -93.38581360000002, 44.8632369 ], [ -93.3858754, 44.863261 ], [ -93.3859628, 44.8632961 ], [ -93.3860851, 44.8633577 ], [ -93.386153, 44.8633963 ], [ -93.3862219, 44.8634538 ], [ -93.3862569, 44.8634905 ], [ -93.3863003, 44.8635291 ], [ -93.3863113, 44.8635412 ], [ -93.3863329, 44.863565 ], [ -93.386382200000014, 44.863598 ], [ -93.38642, 44.8636253 ], [ -93.3864709, 44.8636477 ], [ -93.3865273, 44.863674 ], [ -93.3865931, 44.8637029 ], [ -93.3866255, 44.863734399999984 ], [ -93.386656, 44.8637589 ], [ -93.3867285, 44.8638359 ], [ -93.3867632, 44.863867499999984 ], [ -93.3868003, 44.8639014 ], [ -93.386842300000012, 44.8639316 ], [ -93.3868874, 44.863964 ], [ -93.3869409, 44.8639985 ], [ -93.3869928, 44.8640295 ], [ -93.38701571568437, 44.864043346935901 ], [ -93.387197637604714, 44.864312058102612 ], [ -93.3871528, 44.8642927 ], [ -93.3870447, 44.864251699999983 ], [ -93.3869777, 44.8642588 ], [ -93.3868886, 44.8642504 ], [ -93.3868431, 44.8642371 ], [ -93.3868061, 44.8642264 ], [ -93.3867428, 44.8642046 ], [ -93.3866935, 44.8641936 ], [ -93.3866367, 44.8641826 ], [ -93.3865545, 44.864173 ], [ -93.3864846, 44.8641605 ], [ -93.3863563, 44.8641384 ], [ -93.3863179, 44.8641359 ], [ -93.3862662, 44.8641304 ], [ -93.3862363, 44.8641263 ], [ -93.3862029, 44.8641273 ], [ -93.3861453, 44.8641354 ], [ -93.3860199, 44.8641692 ], [ -93.3859741, 44.8641832 ], [ -93.3859078, 44.8641965 ], [ -93.385852, 44.8642035 ], [ -93.3858219, 44.864206700000011 ], [ -93.3857796, 44.8642118 ], [ -93.3857298, 44.8642312 ], [ -93.3856986, 44.8642466 ], [ -93.3856584, 44.86427170000001 ], [ -93.3856149, 44.8642834 ], [ -93.3855456, 44.864291 ], [ -93.385495300000017, 44.8642912 ], [ -93.3854446, 44.8642884 ], [ -93.3854212, 44.864281 ], [ -93.385385, 44.8642632 ], [ -93.385347, 44.8642411 ], [ -93.3853286, 44.8642121 ], [ -93.385308, 44.8641816 ], [ -93.385275, 44.8641511 ], [ -93.3852492, 44.8641323 ], [ -93.3852457, 44.8641204 ], [ -93.3852431, 44.864101200000015 ], [ -93.3852387, 44.8640848 ], [ -93.3852402, 44.8640475 ], [ -93.3852266, 44.8640106 ], [ -93.3852093, 44.863974499999983 ], [ -93.3851766, 44.863942 ], [ -93.3851558, 44.8639215 ], [ -93.3851189, 44.8638941 ], [ -93.3850797, 44.86386490000001 ], [ -93.3850449, 44.8638436 ], [ -93.3850055, 44.863829 ], [ -93.3849888, 44.8638124 ], [ -93.3849653, 44.86379250000001 ], [ -93.384926, 44.8637738 ], [ -93.384889300000012, 44.8637687 ], [ -93.384846700000011, 44.8637725 ], [ -93.3848043, 44.8637776 ], [ -93.3847688, 44.8637812 ], [ -93.3847428, 44.86378 ], [ -93.3847149, 44.8637712 ], [ -93.3846724, 44.8637569 ], [ -93.3846646, 44.8637372 ], [ -93.3846546, 44.8637004 ], [ -93.3846432, 44.8636696 ], [ -93.3846422, 44.8636405 ], [ -93.3846392, 44.8636177 ], [ -93.3846442, 44.8635808 ], [ -93.3846604, 44.8635402 ], [ -93.3846794, 44.8635095 ], [ -93.3847219, 44.8634448 ], [ -93.3847384, 44.8634216 ], [ -93.3847647, 44.8633769 ], [ -93.3847632, 44.8633518 ], [ -93.3847484, 44.8633173 ], [ -93.3847017, 44.8632733 ], [ -93.38466750000002, 44.8632517 ], [ -93.3846093, 44.8632166 ], [ -93.3845547, 44.8631845 ], [ -93.3845116, 44.8631644 ], [ -93.3844692, 44.8631459 ], [ -93.3843961, 44.8631381 ], [ -93.3843607, 44.863146 ], [ -93.3843357, 44.8631604 ], [ -93.3843127, 44.8631761 ], [ -93.3842738, 44.8631939 ], [ -93.3842398, 44.8632058 ], [ -93.3842132, 44.863211 ], [ -93.3841954, 44.8631998 ], [ -93.3841857, 44.8631778 ], [ -93.3841875, 44.863139900000014 ], [ -93.3841913, 44.8631202 ], [ -93.384181, 44.8630873 ], [ -93.384154, 44.8630674 ], [ -93.384135, 44.8630498 ], [ -93.3840994, 44.8630195 ], [ -93.3840632, 44.862998099999984 ], [ -93.3840267, 44.8629764 ], [ -93.3839922, 44.8629626 ], [ -93.3839425, 44.8629393 ], [ -93.3838988, 44.8629102 ], [ -93.383879, 44.8628821 ], [ -93.3838621, 44.862844599999981 ], [ -93.3838561, 44.8628146 ], [ -93.3838564, 44.8627719 ], [ -93.3838407, 44.8627484 ], [ -93.3838358, 44.8627364 ], [ -93.3838402, 44.862708500000011 ], [ -93.3838422, 44.862688899999988 ], [ -93.383842597819537, 44.862680729401255 ], [ -93.383866418521563, 44.862677801165219 ], [ -93.3838767, 44.8626848 ], [ -93.3839098, 44.8627032 ], [ -93.3839608, 44.8627033 ], [ -93.3840119, 44.8626922 ], [ -93.3840403, 44.8626869 ], [ -93.3840666, 44.8626821 ], [ -93.3841317, 44.8626523 ], [ -93.384178377573718, 44.862639452114394 ], [ -93.384697861062179, 44.86257559013184 ], [ -93.3847707, 44.8625965 ] ] ] } },
{ "type": "Feature", "properties": { "kind": "rough" }, "geometry": { "type": "Polygon", "coordinates": [ [ [ -93.3827354, 44.8629941 ], [ -93.3827075, 44.86306170000001 ], [ -93.3826659, 44.863097599999989 ], [ -93.382563, 44.8631386 ], [ -93.3825414, 44.8631606 ], [ -93.382529275059667, 44.863171255253675 ], [ -93.382555413700004, 44.863123158968911 ], [ -93.382594559758971, 44.863067941140862 ], [ -93.382641127385597, 44.863015718025437 ], [ -93.382694668096434, 44.862966992551129 ], [ -93.382720731103291, 44.862947549577513 ], [ -93.3827354, 44.8629941 ] ] ] } },
{ "type": "Feature", "properties": { "kind": "rough" }, "geometry": { "type": "Polygon", "coordinates": [ [ [ -93.3830847, 44.8635485 ], [ -93.3830384, 44.863492399999984 ], [ -93.3830264, 44.8634302 ], [ -93.3830406, 44.8633812 ], [ -93.3830836, 44.8633539 ], [ -93.3831122, 44.863319 ], [ -93.383157700000012, 44.8632698 ], [ -93.383189, 44.863230599999987 ], [ -93.3832335, 44.8631771 ], [ -93.3832687, 44.863138 ], [ -93.3833082, 44.863094600000011 ], [ -93.3833606, 44.8630373 ], [ -93.3833795, 44.8630528 ], [ -93.3834093, 44.8630521 ], [ -93.3834631, 44.8630485 ], [ -93.3835098, 44.8630434 ], [ -93.383547100000015, 44.863045 ], [ -93.3835759, 44.8630513 ], [ -93.3836112, 44.8630635 ], [ -93.3836333, 44.8630687 ], [ -93.383674500000012, 44.863083399999987 ], [ -93.3837259, 44.8630974 ], [ -93.3837615, 44.8631059 ], [ -93.383808300000013, 44.863111600000011 ], [ -93.3838657, 44.8631244 ], [ -93.3839005, 44.863140599999987 ], [ -93.3839144, 44.8631611 ], [ -93.3839212, 44.8631865 ], [ -93.3839224, 44.863213 ], [ -93.3839093, 44.8632403 ], [ -93.3838893, 44.863275 ], [ -93.383869, 44.8633041 ], [ -93.383832, 44.8633393 ], [ -93.3838014, 44.8633455 ], [ -93.3837612, 44.8633514 ], [ -93.3837227, 44.8633517 ], [ -93.3837007, 44.8633715 ], [ -93.3836555, 44.8633951 ], [ -93.3835934, 44.8634269 ], [ -93.3835594, 44.8634521 ], [ -93.3834958, 44.8634839 ], [ -93.3834419, 44.863522 ], [ -93.3833915, 44.8635436 ], [ -93.3833556, 44.8635595 ], [ -93.3833096, 44.8635726 ], [ -93.3832435, 44.8635836 ], [ -93.38319, 44.8635856 ], [ -93.3831391, 44.8635717 ], [ -93.3830847, 44.8635485 ] ] ] } },
{ "type": "Feature", "properties": { "kind": "rough" }, "geometry": { "type": "Polygon", "coordinates": [ [ [ -93.382983, 44.8639043 ], [ -93.3829212, 44.8639071 ], [ -93.3828727, 44.86389 ], [ -93.3828059, 44.8638575 ], [ -93.3827626, 44.8638116 ], [ -93.382739, 44.8637542 ], [ -93.3827345, 44.8637289 ], [ -93.3827272, 44.8636886 ], [ -93.3827142, 44.8636452 ], [ -93.382699200000019, 44.8636096 ], [ -93.3827258, 44.8635704 ], [ -93.3827784, 44.8635352 ], [ -93.3828272, 44.8635507 ], [ -93.382846, 44.86357430000001 ], [ -93.3828673, 44.8635905 ], [ -93.3829231, 44.8636143 ], [ -93.3829783, 44.863646 ], [ -93.3830256, 44.86365270000001 ], [ -93.3830767, 44.8636758 ], [ -93.3831002, 44.8637119 ], [ -93.3830923, 44.8637518 ], [ -93.3830809, 44.8637734 ], [ -93.3830587, 44.8637885 ], [ -93.3830168, 44.86381 ], [ -93.3829792, 44.863833399999983 ], [ -93.382983, 44.8639043 ] ] ] } },
{ "type": "Feature", "properties": { "kind": "rough" }, "geometry": { "type": "Polygon", "coordinates": [ [ [ -93.3834032, 44.8639893 ], [ -93.38351667430797, 44.863999766508883 ], [ -93.383516107369559, 44.863999836198325 ], [ -93.383429801620579, 44.864007365772686 ], [ -93.383377203990321, 44.864008259496011 ], [ -93.3834032, 44.8639893 ] ] ] } },
{ "type": "Feature", "properties": { "kind": "rough" }, "geometry": { "type": "Polygon", "coordinates": [ [ [ -93.3860089, 44.8653687 ], [ -93.3861095, 44.8654329 ], [ -93.3862143, 44.8655848 ], [ -93.3862617, 44.865666 ], [ -93.3863199, 44.8657683 ], [ -93.3863665, 44.8658873 ], [ -93.386379714173188, 44.86600253130608 ], [ -93.38634084179651, 44.865951663047333 ], [ -93.385927383614018, 44.865340954091494 ], [ -93.3860089, 44.8653687 ] ] ] } },
{ "type": "Feature", "properties": { "kind": "rough" }, "geometry": { "type": "Polygon", "coordinates": [ [ [ -93.3873211, 44.8662901 ], [ -93.387314100000012, 44.8662645 ], [ -93.3873115, 44.8662272 ], [ -93.3873223, 44.8662062 ], [ -93.3873461, 44.866197 ], [ -93.3873852, 44.8661901 ], [ -93.3874398, 44.8661828 ], [ -93.3874902, 44.866172 ], [ -93.3875279, 44.8661606 ], [ -93.3876193, 44.8661292 ], [ -93.3878093, 44.866088799999979 ], [ -93.387810923880977, 44.866088497841602 ], [ -93.387799854761411, 44.866098226767832 ], [ -93.387738796171462, 44.866142256345455 ], [ -93.387671963003839, 44.866181817749471 ], [ -93.387599998903312, 44.86621652997249 ], [ -93.387523596933462, 44.866246058707844 ], [ -93.387443492901781, 44.866270119569585 ], [ -93.387360458272795, 44.866288480831486 ], [ -93.387323277904628, 44.86629393128991 ], [ -93.3873211, 44.8662901 ] ] ] } },
{ "type": "Feature", "properties": { "kind": "rough" }, "geometry": { "type": "Polygon", "coordinates": [ [ [ -93.3875404, 44.8656507 ], [ -93.3875117, 44.865665300000011 ], [ -93.3874816, 44.8656754 ], [ -93.3874653, 44.8656933 ], [ -93.387454, 44.8657205 ], [ -93.387474, 44.8657386 ], [ -93.3874901, 44.8657596 ], [ -93.387510600000013, 44.8657879 ], [ -93.3875272, 44.865808799999989 ], [ -93.3875379, 44.865830099999989 ], [ -93.3875356, 44.865854899999988 ], [ -93.387502, 44.8658768 ], [ -93.387441, 44.8659025 ], [ -93.3873776, 44.8659241 ], [ -93.3873143, 44.8659426 ], [ -93.3872442, 44.8659446 ], [ -93.3871813, 44.8659424 ], [ -93.3871487, 44.865918 ], [ -93.387108, 44.8658624 ], [ -93.3870111, 44.8656737 ], [ -93.3870183, 44.8656518 ], [ -93.3870247, 44.8656263 ], [ -93.3870471, 44.8656078 ], [ -93.3870906, 44.8655866 ], [ -93.3871432, 44.8655768 ], [ -93.3871977, 44.865573099999985 ], [ -93.3872567, 44.865578699999979 ], [ -93.3873517, 44.8656019 ], [ -93.387388, 44.8656069 ], [ -93.387449100000012, 44.8656381 ], [ -93.387408, 44.8656313 ], [ -93.3873664, 44.8656241 ], [ -93.3873431, 44.8656238 ], [ -93.3873204, 44.8656326 ], [ -93.387315700000016, 44.8656551 ], [ -93.3873288, 44.8656731 ], [ -93.3873578, 44.8656813 ], [ -93.3873976, 44.8656821 ], [ -93.3874212, 44.8656704 ], [ -93.3874461, 44.8656573 ], [ -93.3874763, 44.86564820000001 ], [ -93.3875143, 44.865646 ], [ -93.3875404, 44.8656507 ] ] ] } },
{ "type": "Feature", "properties": { "kind": "rough" }, "geometry": { "type": "Polygon", "coordinates": [ [ [ -93.3880001, 44.8655674 ], [ -93.3879465, 44.8655618 ], [ -93.3878935, 44.8655526 ], [ -93.3878341, 44.865542 ], [ -93.3877717, 44.8655173 ], [ -93.3877419, 44.8655012 ], [ -93.3877214, 44.8654805 ], [ -93.38769910000002, 44.8654584 ], [ -93.3876733, 44.8654299 ], [ -93.3876297, 44.8653885 ], [ -93.3875956, 44.8653516 ], [ -93.3875579, 44.8653066 ], [ -93.3875109, 44.865248299999983 ], [ -93.3874981, 44.8652123 ], [ -93.3874921, 44.8651629 ], [ -93.3874923, 44.8651424 ], [ -93.3875217, 44.8651572 ], [ -93.3875579, 44.8651631 ], [ -93.3876002, 44.8651615 ], [ -93.3876131, 44.8651542 ], [ -93.3876272, 44.8651332 ], [ -93.3876724, 44.865104799999983 ], [ -93.387716224153607, 44.865078030574367 ], [ -93.387937550617309, 44.865404931384496 ], [ -93.387971384096332, 44.86546189762673 ], [ -93.387997203277905, 44.865520947962537 ], [ -93.388010857080516, 44.865568051125422 ], [ -93.3880001, 44.8655674 ] ] ] } },
{ "type": "Feature", "properties": { "kind": "rough" }, "geometry": { "type": "Polygon", "coordinates": [ [ [ -93.3825576, 44.8635297 ], [ -93.3826306, 44.8635559 ], [ -93.3826742, 44.863583799999986 ], [ -93.3826304, 44.8636136 ], [ -93.3826126, 44.8636517 ], [ -93.382596477721648, 44.863690735016057 ], [ -93.382573502849951, 44.863661847032553 ], [ -93.382538319232083, 44.863605296254278 ], [ -93.382511099021869, 44.863546565175639 ], [ -93.382503712352531, 44.863523097872637 ], [ -93.3825576, 44.8635297 ] ] ] } },
{ "type": "Feature", "properties": { "kind": "trees" }, "geometry": { "type": "Polygon", "coordinates": [ [ [ -93.383062094742897, 44.864131273835874 ], [ -93.383020058236283, 44.864136826135343 ], [ -93.382970892179799, 44.864118080441145 ], [ -93.382944060651454, 44.864080356511892 ], [ -93.382942787108135, 44.864021403909248 ], [ -93.382894087298737, 44.863988707536578 ], [ -93.382912744817915, 44.863940049704283 ], [ -93.382946014462647, 44.863965738175494 ], [ -93.383019351609434, 44.863985598542676 ], [ -93.383027088738999, 44.864007166074856 ], [ -93.38298456216782, 44.864040115021574 ], [ -93.382997780831019, 44.864092450430306 ], [ -93.383020214816341, 44.864107383181192 ], [ -93.383058083202371, 44.86409890020802 ], [ -93.383077170158941, 44.864115033854539 ], [ -93.383062094742897, 44.864131273835874 ] ] ] } },
{ "type": "Feature", "properties": { "kind": "trees" }, "geometry": { "type": "Polygon", "coordinates": [ [ [ -93.385306050436611, 44.864085915905662 ], [ -93.38524824218166, 44.864071828516423 ], [ -93.385211105009276, 44.864080834646821 ], [ -93.385153864101966, 44.864037822298577 ], [ -93.385168729285326, 44.863989171972094 ], [ -93.385187640775356, 44.863981011238316 ], [ -93.385309350553612, 44.864010307198136 ], [ -93.385315806782899, 44.864016558180921 ], [ -93.3853161, 44.8640355 ], [ -93.3853185, 44.864066 ], [ -93.385322563522678, 44.864078795777431 ], [ -93.385306050436611, 44.864085915905662 ] ] ] } },
{ "type": "Feature", "properties": { "kind": "trees" }, "geometry": { "type": "Polygon", "coordinates": [ [ [ -93.386520003810702, 44.864049809334766 ], [ -93.386532547462807, 44.864076374685602 ], [ -93.386480992036994, 44.864107641682537 ], [ -93.386525404619874, 44.864143914917577 ], [ -93.38647251621903, 44.864181897933634 ], [ -93.386403811790345, 44.86412812249651 ], [ -93.386437781543748, 44.864090033479194 ], [ -93.386391986355122, 44.864063358460847 ], [ -93.386402425697909, 44.864057451583307 ], [ -93.3864428, 44.8640498 ], [ -93.386487, 44.8640266 ], [ -93.3865223, 44.8640013 ], [ -93.386527413895877, 44.863995911701821 ], [ -93.386543433454605, 44.864000731156672 ], [ -93.386543632176, 44.864030426249045 ], [ -93.386520003810702, 44.864049809334766 ] ] ] } },
{ "type": "Feature", "properties": { "kind": "trees" }, "geometry": { "type": "MultiPolygon", "coordinates": [ [ [ [ -93.386818962157378, 44.866014460865671 ], [ -93.386803706977204, 44.866003714839138 ], [ -93.386818762738898, 44.865976433460965 ], [ -93.386808844489167, 44.865964944636033 ], [ -93.386742790967716, 44.865985012046892 ], [ -93.386693393482332, 44.865977077127866 ], [ -93.386678120334935, 44.865963641872895 ], [ -93.386712455679515, 44.865933841746923 ], [ -93.386681556096448, 44.865909606042798 ], [ -93.386692699175157, 44.865882752588178 ], [ -93.386654485536226, 44.865836775071799 ], [ -93.386664347061398, 44.865814198832574 ], [ -93.386647400832359, 44.865809947189369 ], [ -93.3866677, 44.865805 ], [ -93.3867148, 44.8657722 ], [ -93.3867404, 44.8657182 ], [ -93.38675013004395, 44.865710084990077 ], [ -93.386701306636667, 44.865819043886844 ], [ -93.38674185206601, 44.86584459816963 ], [ -93.386758917762123, 44.865880638568925 ], [ -93.3867989984861, 44.86586871500073 ], [ -93.386814219582689, 44.865876760421735 ], [ -93.386801232854253, 44.865906837799706 ], [ -93.386871922623826, 44.865987279962312 ], [ -93.386818962157378, 44.866014460865671 ] ] ], [ [ [ -93.386582070437058, 44.865793556402359 ], [ -93.386548060625287, 44.865823632567718 ], [ -93.386532805545926, 44.86581288650428 ], [ -93.386531306095918, 44.86577930992609 ], [ -93.386498422987856, 44.865783290943533 ], [ -93.386483167928375, 44.865772544873337 ], [ -93.3864792802312, 44.865759066191295 ], [ -93.386535972237596, 44.865728973288697 ], [ -93.386540639447901, 44.865667060726722 ], [ -93.386504867790833, 44.865610427638188 ], [ -93.386516072932977, 44.865583404891197 ], [ -93.386546094462844, 44.86560078409061 ], [ -93.386584143460013, 44.865588565175287 ], [ -93.386592677122437, 44.865594486653443 ], [ -93.386600898601046, 44.865608950822214 ], [ -93.386588606570612, 44.865641540795849 ], [ -93.38659566197569, 44.865669266246805 ], [ -93.3865881, 44.8656966 ], [ -93.38659539302553, 44.865741470670862 ], [ -93.386592124675815, 44.865747483068823 ], [ -93.386596956508029, 44.865751090058538 ], [ -93.3865999, 44.8657692 ], [ -93.386610363272609, 44.865800654816731 ], [ -93.386582070437058, 44.865793556402359 ] ] ], [ [ [ -93.386797294358985, 44.865617556520057 ], [ -93.386801199533593, 44.865633735485538 ], [ -93.386791381093573, 44.865641204382932 ], [ -93.386792833009139, 44.865617043006111 ], [ -93.386797294358985, 44.865617556520057 ] ] ] ] } },
{ "type": "Feature", "properties": { "kind": "trees" }, "geometry": { "type": "Polygon", "coordinates": [ [ [ -93.387952581055927, 44.864677467519229 ], [ -93.38790008968509, 44.864711785181242 ], [ -93.38786216656878, 44.864717315326722 ], [ -93.387850727027825, 44.864709257120815 ], [ -93.387846784684513, 44.864687676742442 ], [ -93.387869441123996, 44.864668695693538 ], [ -93.387940060256525, 44.864641747538101 ], [ -93.387939845847299, 44.864611417703046 ], [ -93.387903055884166, 44.864584860013196 ], [ -93.387933173791367, 44.864546954856088 ], [ -93.387976761119319, 44.864548107530524 ], [ -93.387959580674263, 44.864519853816937 ], [ -93.387986062777856, 44.864506265618253 ], [ -93.388001249125367, 44.864508909656436 ], [ -93.388002374068279, 44.864676329668271 ], [ -93.387952581055927, 44.864677467519229 ] ] ] } },
{ "type": "Feature", "properties": { "kind": "trees" }, "geometry": { "type": "Polygon", "coordinates": [ [ [ -93.386049505492835, 44.865096145699532 ], [ -93.385981950852923, 44.865080335200403 ], [ -93.385954514682609, 44.865085664193764 ], [ -93.385923964144709, 44.865048759556963 ], [ -93.385825079049269, 44.865037489996055 ], [ -93.385807558998323, 44.864982255758648 ], [ -93.385771627182834, 44.864994460294326 ], [ -93.385752539022121, 44.864978325789096 ], [ -93.385781840445048, 44.864948066599439 ], [ -93.385786318637983, 44.864918808933147 ], [ -93.38581695110372, 44.864901113999451 ], [ -93.385816173731953, 44.864840389852745 ], [ -93.385899476248923, 44.864786926075169 ], [ -93.385841048610303, 44.864746229631514 ], [ -93.385800439016492, 44.8647621077629 ], [ -93.38578521828633, 44.864754062123524 ], [ -93.385877737780731, 44.8646919724588 ], [ -93.385868200978152, 44.864670073243289 ], [ -93.385881644325565, 44.864654331660347 ], [ -93.385856558039123, 44.864634777809442 ], [ -93.385871305904828, 44.864567443270964 ], [ -93.385906368554757, 44.864593163962901 ], [ -93.385935896876902, 44.864572626298326 ], [ -93.385951117511283, 44.8645806718378 ], [ -93.385953967749487, 44.86462102976575 ], [ -93.385947498921539, 44.864649464128405 ], [ -93.385939277702349, 44.864659359276985 ], [ -93.385944129738249, 44.864664273690259 ], [ -93.3859431, 44.8646688 ], [ -93.3859391, 44.864686399999982 ], [ -93.3859416, 44.8648455 ], [ -93.385983706539847, 44.864905524303687 ], [ -93.385984019089904, 44.86494765738658 ], [ -93.386029807760139, 44.864990892155198 ], [ -93.385952007559254, 44.865036558293504 ], [ -93.385966360435191, 44.865046669074879 ], [ -93.385992183980562, 44.86504234776902 ], [ -93.386019802687201, 44.865077288452532 ], [ -93.386056598689791, 44.865066425216838 ], [ -93.386068123387716, 44.865077370385691 ], [ -93.386049505492835, 44.865096145699532 ] ] ] } },
{ "type": "Feature", "properties": { "kind": "trees" }, "geometry": { "type": "Polygon", "coordinates": [ [ [ -93.387831529184595, 44.864682315931518 ], [ -93.387789930135639, 44.86470675800566 ], [ -93.387733018507447, 44.864712352523284 ], [ -93.387699493279456, 44.864702831041377 ], [ -93.387676080274318, 44.864717947163207 ], [ -93.387581532606291, 44.864732284125196 ], [ -93.387558597822306, 44.864753454252046 ], [ -93.387463505542428, 44.864726775362833 ], [ -93.387493642084536, 44.864691581052909 ], [ -93.387528752076165, 44.864696696915466 ], [ -93.387555739452679, 44.864682130680507 ], [ -93.387561340812056, 44.864668275185402 ], [ -93.387542690154504, 44.864645272367703 ], [ -93.387554001105087, 44.864631962115645 ], [ -93.387584435992281, 44.8646426609196 ], [ -93.38762618352915, 44.864682538750735 ], [ -93.387660637247762, 44.8646802117511 ], [ -93.387688494701024, 44.864693702093298 ], [ -93.387698360894035, 44.864639569538518 ], [ -93.387760498290859, 44.864627180860218 ], [ -93.387789186913494, 44.86459605548184 ], [ -93.387838649323697, 44.86465551791143 ], [ -93.387831529184595, 44.864682315931518 ] ] ] } },
{ "type": "Feature", "properties": { "kind": "trees" }, "geometry": { "type": "Polygon", "coordinates": [ [ [ -93.382820155800417, 44.864869359847297 ], [ -93.382794997265819, 44.864866918318896 ], [ -93.382772579141559, 44.864882194460662 ], [ -93.382768080700345, 44.864901506476187 ], [ -93.38279772269442, 44.864923464084576 ], [ -93.382767402452387, 44.864949728880468 ], [ -93.38278287318056, 44.864974814752429 ], [ -93.382710978502544, 44.865010159141995 ], [ -93.382697449340483, 44.864979458145307 ], [ -93.382649766794003, 44.864943079524956 ], [ -93.38270527704077, 44.864914145336364 ], [ -93.382715476352445, 44.864889932919148 ], [ -93.382630373150974, 44.864880798359621 ], [ -93.382504782513195, 44.864838013728267 ], [ -93.382503405249849, 44.864630084963167 ], [ -93.382681400203253, 44.864652886343684 ], [ -93.3827198497262, 44.864632060695513 ], [ -93.382725119461199, 44.864662919139548 ], [ -93.38275427592508, 44.864669753831294 ], [ -93.382842020270161, 44.864731570018918 ], [ -93.382846050170372, 44.864766654884349 ], [ -93.382823736940153, 44.864802487368273 ], [ -93.382873043501363, 44.864828677827177 ], [ -93.382820155800417, 44.864869359847297 ] ] ] } },
{ "type": "Feature", "properties": { "kind": "trees" }, "geometry": { "type": "Polygon", "coordinates": [ [ [ -93.386959963994741, 44.864195884169092 ], [ -93.386996851022275, 44.864228738883561 ], [ -93.386947675384647, 44.864255906969071 ], [ -93.38691162379304, 44.864237481522117 ], [ -93.386856427133566, 44.86423731166505 ], [ -93.38682631187126, 44.864214069363754 ], [ -93.386736639505258, 44.864192163297226 ], [ -93.386692981673647, 44.864216260065994 ], [ -93.386670166320044, 44.864208240258748 ], [ -93.386714000671262, 44.86415810616267 ], [ -93.386677218707888, 44.864127198425173 ], [ -93.386688495301286, 44.864110971363267 ], [ -93.386898704944443, 44.864206315280676 ], [ -93.386898910743852, 44.864206233440271 ], [ -93.3869091, 44.864211499999989 ], [ -93.387019341721938, 44.86413317551181 ], [ -93.387026831521567, 44.864169223157724 ], [ -93.386959963994741, 44.864195884169092 ] ] ] } },
{ "type": "Feature", "properties": { "kind": "trees" }, "geometry": { "type": "Polygon", "coordinates": [ [ [ -93.38596227557538, 44.864545514119044 ], [ -93.385939603860592, 44.864559089406633 ], [ -93.385908930010288, 44.864516214107162 ], [ -93.385931186232284, 44.86443490333761 ], [ -93.385971205617537, 44.864414265031343 ], [ -93.385934550359906, 44.864370066406416 ], [ -93.385945845353106, 44.864356541310244 ], [ -93.385983850607218, 44.864364510201284 ], [ -93.386035027670616, 44.864436977976851 ], [ -93.3859795, 44.8645088 ], [ -93.385974271444496, 44.864531782716313 ], [ -93.38596227557538, 44.864545514119044 ] ] ] } },
{ "type": "Feature", "properties": { "kind": "trees" }, "geometry": { "type": "MultiPolygon", "coordinates": [ [ [ [ -93.38300353994056, 44.863888433038895 ], [ -93.383013696503923, 44.863892003566477 ], [ -93.382997085415184, 44.863898657653223 ], [ -93.38300353994056, 44.863888433038895 ] ] ], [ [ [ -93.383094341026663, 44.863836811755498 ], [ -93.383232377782591, 44.86378953563932 ], [ -93.383338300286027, 44.863704966930946 ], [ -93.383336347433456, 44.863682061471209 ], [ -93.383362778131669, 44.863660373744651 ], [ -93.383384485615466, 44.863669917177688 ], [ -93.3832918, 44.863780599999984 ], [ -93.383081368978097, 44.863864895217432 ], [ -93.383094341026663, 44.863836811755498 ] ] ] ] } },
{ "type": "Feature", "properties": { "kind": "trees" }, "geometry": { "type": "Polygon", "coordinates": [ [ [ -93.383529987546424, 44.864826473517894 ], [ -93.383514876739071, 44.864837321927098 ], [ -93.383477099880153, 44.864826695774852 ], [ -93.383423757906982, 44.864840328522746 ], [ -93.38337344079892, 44.864832561761673 ], [ -93.383340265880307, 44.864846010027236 ], [ -93.383289187871185, 44.864805682451113 ], [ -93.383262790509917, 44.86481812610841 ], [ -93.383256745513492, 44.864851691686553 ], [ -93.383195902977462, 44.864835696868681 ], [ -93.383241196294122, 44.864795051061357 ], [ -93.383284539828452, 44.864783196916157 ], [ -93.383335733826698, 44.864735320194349 ], [ -93.383434612323342, 44.864759293975879 ], [ -93.383454625789284, 44.864794714128145 ], [ -93.383495457692717, 44.864769892242848 ], [ -93.383522023324218, 44.864769803033099 ], [ -93.383533262262745, 44.864783439460616 ], [ -93.383529987546424, 44.864826473517894 ] ], [ [ -93.383411698562995, 44.86478146772825 ], [ -93.383394363553592, 44.864786120809576 ], [ -93.383395068385795, 44.864803676325394 ], [ -93.383427718686676, 44.864820919089581 ], [ -93.383450158044781, 44.864805002081866 ], [ -93.383411698562995, 44.86478146772825 ] ] ] } },
{ "type": "Feature", "properties": { "kind": "trees" }, "geometry": { "type": "Polygon", "coordinates": [ [ [ -93.38630656228699, 44.863785465045744 ], [ -93.386265848896812, 44.86377771305024 ], [ -93.3862562, 44.863769499999989 ], [ -93.386251, 44.8637466 ], [ -93.3862633, 44.8637177 ], [ -93.3862611, 44.8636764 ], [ -93.386260047325507, 44.863645224644443 ], [ -93.38626007173076, 44.863645210041064 ], [ -93.38627902593521, 44.863642445350926 ], [ -93.386317135233384, 44.863663916932097 ], [ -93.386336369546271, 44.863745092063532 ], [ -93.38630656228699, 44.863785465045744 ] ] ] } },
{ "type": "Feature", "properties": { "kind": "trees" }, "geometry": { "type": "Polygon", "coordinates": [ [ [ -93.385145072376346, 44.863859604623293 ], [ -93.38502409204844, 44.863764007195243 ], [ -93.384932169912446, 44.863776613121281 ], [ -93.384889989200573, 44.863760540876342 ], [ -93.384830617309333, 44.863654587659227 ], [ -93.384756119476251, 44.863615162139403 ], [ -93.384778471514053, 44.863550282781347 ], [ -93.384790105526292, 44.863542135972082 ], [ -93.384805022723825, 44.863550193287487 ], [ -93.384810005953682, 44.86359563559428 ], [ -93.384853349364363, 44.863640950640729 ], [ -93.385063415365266, 44.863750657832597 ], [ -93.385155873523416, 44.863773168375239 ], [ -93.385201651353299, 44.863805417574795 ], [ -93.385209389272106, 44.863826984957107 ], [ -93.385145072376346, 44.863859604623293 ] ] ] } },
{ "type": "Feature", "properties": { "kind": "trees" }, "geometry": { "type": "Polygon", "coordinates": [ [ [ -93.382884049488425, 44.863621448890626 ], [ -93.382798904722108, 44.863597439149409 ], [ -93.382751092548759, 44.863613792699987 ], [ -93.38273580312547, 44.863597655106751 ], [ -93.38279236784507, 44.86353805299823 ], [ -93.38285666689093, 44.86350273363368 ], [ -93.382868172532866, 44.863518667117475 ], [ -93.382853700206326, 44.863552805047512 ], [ -93.382906758407913, 44.863613275790627 ], [ -93.382884049488425, 44.863621448890626 ] ] ] } },
{ "type": "Feature", "properties": { "kind": "trees" }, "geometry": { "type": "Polygon", "coordinates": [ [ [ -93.383635256948679, 44.863519009063914 ], [ -93.383705168699635, 44.863429145300174 ], [ -93.383680070892481, 44.863405431527795 ], [ -93.383691312412694, 44.863383804904096 ], [ -93.383717895345782, 44.863386416233276 ], [ -93.383740185296247, 44.863411167100992 ], [ -93.383793928398759, 44.863396963313434 ], [ -93.383805461001344, 44.863405088040672 ], [ -93.383741200000017, 44.863436 ], [ -93.3836696, 44.8635081 ], [ -93.383641261798573, 44.863522183070813 ], [ -93.383635256948679, 44.863519009063914 ] ] ] } },
{ "type": "Feature", "properties": { "kind": "trees" }, "geometry": { "type": "Polygon", "coordinates": [ [ [ -93.383643869233168, 44.863352441976573 ], [ -93.383411158313578, 44.863514356010874 ], [ -93.383263496792736, 44.863579666480327 ], [ -93.383168600038971, 44.863596989931594 ], [ -93.383134656149565, 44.863620608487444 ], [ -93.383089057813464, 44.863612664394246 ], [ -93.383134386077359, 44.863577419788427 ], [ -93.383294748089369, 44.863532454229052 ], [ -93.383428234431335, 44.863463999087514 ], [ -93.383626400623058, 44.863330009637394 ], [ -93.383637691336006, 44.863326258019974 ], [ -93.3836269, 44.863342799999984 ], [ -93.383654, 44.8633312 ], [ -93.3836748, 44.863324099999986 ], [ -93.383694410754686, 44.863321173022364 ], [ -93.383702286607118, 44.863324337645338 ], [ -93.383643869233168, 44.863352441976573 ] ] ] } },
{ "type": "Feature", "properties": { "kind": "trees" }, "geometry": { "type": "Polygon", "coordinates": [ [ [ -93.386492831166805, 44.863247406955203 ], [ -93.38646502671844, 44.863239317469414 ], [ -93.3864334253051, 44.863259942109075 ], [ -93.386439897483726, 44.863282699340587 ], [ -93.386424787627377, 44.863293548134521 ], [ -93.386386794768626, 44.863288275396386 ], [ -93.386356261032731, 44.863264077782354 ], [ -93.386420157299895, 44.863166654749598 ], [ -93.386467132570587, 44.863215629856157 ], [ -93.386511847375843, 44.86320414287043 ], [ -93.386530344259143, 44.863215064399448 ], [ -93.386492831166805, 44.863247406955203 ] ] ] } },
{ "type": "Feature", "properties": { "kind": "trees" }, "geometry": { "type": "Polygon", "coordinates": [ [ [ -93.383325754923774, 44.863233775335026 ], [ -93.383286119725526, 44.863232114274282 ], [ -93.383234942649622, 44.863282692207434 ], [ -93.383179115279162, 44.863299095795483 ], [ -93.383179012325243, 44.863362669042068 ], [ -93.383193447906322, 44.863384138540816 ], [ -93.3831835, 44.863393200000012 ], [ -93.3831693, 44.8634076 ], [ -93.383158, 44.8634211 ], [ -93.3831512, 44.8634331 ], [ -93.383149, 44.8634429 ], [ -93.3831514, 44.8634512 ], [ -93.383154100000013, 44.8634643 ], [ -93.383157700000012, 44.863474899999986 ], [ -93.383160150436396, 44.863481002974467 ], [ -93.383148985456586, 44.863490929572485 ], [ -93.383091989024109, 44.863483019380176 ], [ -93.383028619098269, 44.863444090833191 ], [ -93.382973903829438, 44.86342670627387 ], [ -93.382992722751112, 44.863402353187105 ], [ -93.383084964321569, 44.863357696273759 ], [ -93.383268292920093, 44.863155670227684 ], [ -93.383306278603001, 44.863160939913392 ], [ -93.383344590897963, 44.86321212193824 ], [ -93.383325754923774, 44.863233775335026 ] ] ] } },
{ "type": "Feature", "properties": { "kind": "trees" }, "geometry": { "type": "Polygon", "coordinates": [ [ [ -93.386895559401694, 44.863278450976239 ], [ -93.386831254654027, 44.863276017785608 ], [ -93.386808276651749, 44.863286848562602 ], [ -93.386739784303231, 44.863262779670286 ], [ -93.386785037228591, 44.863216731776717 ], [ -93.386817018800954, 44.863243455146751 ], [ -93.386844540747319, 44.86323032705225 ], [ -93.386841731661136, 44.863176025194981 ], [ -93.386868324196783, 44.863152332034787 ], [ -93.38683762687613, 44.863130116803688 ], [ -93.386833630843284, 44.863100433420527 ], [ -93.38685608871144, 44.863051746996739 ], [ -93.386886376877854, 44.863038145834096 ], [ -93.386913072328667, 44.863059661234935 ], [ -93.386888163294955, 44.863118707029209 ], [ -93.38691372304767, 44.863156865483987 ], [ -93.386877831475473, 44.863180265979985 ], [ -93.386872480862792, 44.863200866154479 ], [ -93.386897372715694, 44.863228947881183 ], [ -93.386937067428875, 44.863240517617285 ], [ -93.386937139716693, 44.863251308642589 ], [ -93.386895559401694, 44.863278450976239 ] ] ] } },
{ "type": "Feature", "properties": { "kind": "trees" }, "geometry": { "type": "Polygon", "coordinates": [ [ [ -93.383128098652662, 44.863121840670424 ], [ -93.383150518750824, 44.863150648358143 ], [ -93.383112815562185, 44.863191284122543 ], [ -93.38305823750612, 44.863198243574509 ], [ -93.383010617632721, 44.863240234469743 ], [ -93.38293733251237, 44.86326904917513 ], [ -93.382988239593558, 44.863302439973062 ], [ -93.382992251654429, 44.863334822929765 ], [ -93.382963384631694, 44.863358927056019 ], [ -93.382965939356978, 44.863375420806278 ], [ -93.382939472818123, 44.863391708506363 ], [ -93.382856032700957, 44.863408192379204 ], [ -93.382786436784286, 44.86339613978754 ], [ -93.382689566647457, 44.863497871255447 ], [ -93.382659016294227, 44.863470987225334 ], [ -93.382706441910855, 44.86343654930193 ], [ -93.382714630318731, 44.863401020954029 ], [ -93.382699520743245, 44.863390979406006 ], [ -93.382631874041849, 44.863387338217564 ], [ -93.382582051484661, 44.863317304662665 ], [ -93.382672810783674, 44.863260291742634 ], [ -93.382748435594991, 44.863307741813585 ], [ -93.382782977558449, 44.863268024736449 ], [ -93.382815018243548, 44.863269711384383 ], [ -93.382826353839377, 44.863229009917319 ], [ -93.382790531277806, 44.863213999327819 ], [ -93.382767484152311, 44.863222144585286 ], [ -93.382756009905521, 44.863208696066771 ], [ -93.382815302277876, 44.863179964221018 ], [ -93.38282775719307, 44.863149046359261 ], [ -93.382912283857252, 44.863162099909182 ], [ -93.383024997796667, 44.863115977361204 ], [ -93.383049897968547, 44.863141480205528 ], [ -93.383069449804822, 44.863138602390549 ], [ -93.383074150472581, 44.863117857553831 ], [ -93.383051357385028, 44.863084192424736 ], [ -93.383016961282479, 44.86309708915514 ], [ -93.382976275004864, 44.86307847556094 ], [ -93.382929871155127, 44.863086568077371 ], [ -93.382914528116856, 44.863062328758033 ], [ -93.382933382100717, 44.863043367174896 ], [ -93.382976800259996, 44.863049561778546 ], [ -93.383005671646146, 44.863018808377085 ], [ -93.383038484976794, 44.863037695121946 ], [ -93.383062684056256, 44.863026719089646 ], [ -93.38312698999205, 44.863037316548159 ], [ -93.383157790819354, 44.863102012391096 ], [ -93.383128098652662, 44.863121840670424 ] ] ] } },
{ "type": "Feature", "properties": { "kind": "trees" }, "geometry": { "type": "Polygon", "coordinates": [ [ [ -93.386149407522993, 44.862612208084485 ], [ -93.386158364530431, 44.862635497356514 ], [ -93.386147033956391, 44.862643632693043 ], [ -93.386091304736794, 44.862635378603336 ], [ -93.386063527335821, 44.86264661559693 ], [ -93.386014475552031, 44.862624483883017 ], [ -93.385983715269731, 44.862636082859019 ], [ -93.38584277390963, 44.862569063969858 ], [ -93.386203481473132, 44.862567844782319 ], [ -93.386214961696609, 44.862581293111418 ], [ -93.386149407522993, 44.862612208084485 ] ] ] } },
{ "type": "Feature", "properties": { "kind": "trees" }, "geometry": { "type": "Polygon", "coordinates": [ [ [ -93.38799631489583, 44.863774340426751 ], [ -93.387982490671405, 44.863787454556594 ], [ -93.387996587067846, 44.863814860438822 ], [ -93.387997312596127, 44.863922872368704 ], [ -93.387981747176184, 44.863938225640865 ], [ -93.387998001920835, 44.86402549443541 ], [ -93.387971587672467, 44.864048217154725 ], [ -93.387994567411695, 44.864079518949659 ], [ -93.387934245195211, 44.864128906271013 ], [ -93.387938224304364, 44.864171533520491 ], [ -93.387911830890985, 44.864198623891696 ], [ -93.387870029323665, 44.864190668281857 ], [ -93.387876471923349, 44.864150588718516 ], [ -93.387836854501032, 44.864128836090217 ], [ -93.387816568790711, 44.864148667438776 ], [ -93.387835787432067, 44.864185383321512 ], [ -93.387792433588785, 44.864194534118703 ], [ -93.387760192407711, 44.864236947313991 ], [ -93.387729745997575, 44.864223552343617 ], [ -93.387725826590824, 44.864207588246657 ], [ -93.387774053985581, 44.86416623526776 ], [ -93.387765027905743, 44.864143314971571 ], [ -93.387683519235125, 44.864126481816456 ], [ -93.38765861216072, 44.864100554285216 ], [ -93.387527756234135, 44.864116207371225 ], [ -93.38747443694399, 44.864092086979213 ], [ -93.387455157631763, 44.864056785574363 ], [ -93.387413567288888, 44.86407878579751 ], [ -93.387379423741677, 44.864081602198837 ], [ -93.387306752387673, 44.864047253227909 ], [ -93.387290209439925, 44.864050403684033 ], [ -93.387254863632265, 44.864100182527977 ], [ -93.387278842711581, 44.864131561359457 ], [ -93.387353310505517, 44.864154624377278 ], [ -93.387353455313914, 44.864176217723589 ], [ -93.387315688233173, 44.86420604797479 ], [ -93.387285447031545, 44.864189912401486 ], [ -93.387247298017911, 44.864198177967907 ], [ -93.387197614014894, 44.864149741047839 ], [ -93.387195413291735, 44.864110894063025 ], [ -93.387147831715623, 44.864087793338577 ], [ -93.387137470636716, 44.86406449041484 ], [ -93.387090528900544, 44.864036675770599 ], [ -93.387114021749497, 44.863991396492125 ], [ -93.387079374118798, 44.863980623146496 ], [ -93.387033417553894, 44.864015259324532 ], [ -93.387016209872073, 44.863968578480012 ], [ -93.386968454104078, 44.863953369560072 ], [ -93.386936377036747, 44.863890189514848 ], [ -93.38689244180874, 44.863899619931807 ], [ -93.386876884671992, 44.86388886437912 ], [ -93.386899882236733, 44.863849190591012 ], [ -93.386861080611766, 44.86379709738582 ], [ -93.386856957812483, 44.863748508627587 ], [ -93.386902299582331, 44.863715953511722 ], [ -93.38692506915703, 44.863715876310124 ], [ -93.386959382501445, 44.863737360240911 ], [ -93.386940774128561, 44.863783516949134 ], [ -93.386949113463857, 44.863832408229548 ], [ -93.387013376899176, 44.863861406829848 ], [ -93.387030220383409, 44.863904873767233 ], [ -93.387058206432798, 44.863924857720932 ], [ -93.387103776570115, 44.863939764652166 ], [ -93.387139092963807, 44.863920399819058 ], [ -93.387167409937916, 44.86397466009133 ], [ -93.387207659444357, 44.863949874432357 ], [ -93.387241772792152, 44.863949790484604 ], [ -93.387272768930018, 44.863921863233905 ], [ -93.387274001186327, 44.863852096459475 ], [ -93.387227081637704, 44.863798689513203 ], [ -93.387142249052474, 44.863825845746966 ], [ -93.387115223372916, 44.863824205376496 ], [ -93.387085423851431, 44.86384494259746 ], [ -93.387054977803771, 44.86383154744501 ], [ -93.387054837810936, 44.863812869872447 ], [ -93.387090442252159, 44.863805758072083 ], [ -93.387115420096208, 44.86378544794519 ], [ -93.3871376411672, 44.863795266857572 ], [ -93.38715461816345, 44.863787024625488 ], [ -93.387118862275102, 44.863731418512899 ], [ -93.387167984874637, 44.86369614855515 ], [ -93.387251762795515, 44.863733673500697 ], [ -93.387266359689292, 44.863765102489936 ], [ -93.387297475141665, 44.863755123626682 ], [ -93.387334436881986, 44.863813274449264 ], [ -93.387405721060205, 44.863849619593125 ], [ -93.387464843609067, 44.863795065549652 ], [ -93.387504160942498, 44.863806075343241 ], [ -93.38755596278807, 44.863794756370481 ], [ -93.387606321398607, 44.863833927847672 ], [ -93.38764340707165, 44.863807962804415 ], [ -93.387682422586053, 44.863829269218442 ], [ -93.387707124978462, 44.863812678356837 ], [ -93.387707732312151, 44.863772631180389 ], [ -93.387722842112893, 44.86376178222973 ], [ -93.38781591035756, 44.863773974520122 ], [ -93.387885926198678, 44.86373152137768 ], [ -93.387934189105152, 44.8637587044947 ], [ -93.387996006947944, 44.863728446569937 ], [ -93.38799631489583, 44.863774340426751 ] ], [ [ -93.387536336392515, 44.863827666347085 ], [ -93.387500534731885, 44.863808601295005 ], [ -93.387473511916809, 44.863827892177675 ], [ -93.387451181869224, 44.863894578892733 ], [ -93.387491520406385, 44.863918037334791 ], [ -93.38753785403847, 44.863878300297607 ], [ -93.387536336392515, 44.863827666347085 ] ] ] } },
{ "type": "Feature", "properties": { "kind": "trees" }, "geometry": { "type": "Polygon", "coordinates": [ [ [ -93.384469704976965, 44.86508797182195 ], [ -93.384416522144562, 44.865082750096249 ], [ -93.384382525947757, 44.865041077362122 ], [ -93.384340358336701, 44.865050598209152 ], [ -93.384331204335169, 44.865022684440412 ], [ -93.384256265990786, 44.864967166152319 ], [ -93.384257972475723, 44.864944511133018 ], [ -93.3841797792591, 44.864886398913512 ], [ -93.38419098535239, 44.86485937638799 ], [ -93.384225145754982, 44.864859261465121 ], [ -93.384368913036809, 44.864954783137122 ], [ -93.384418415900996, 44.864974820368452 ], [ -93.384442312512149, 44.864963855664975 ], [ -93.384482182837672, 44.864970828451675 ], [ -93.384557680628262, 44.864932853588464 ], [ -93.384673143408051, 44.864841549029542 ], [ -93.384707267328253, 44.864836033280433 ], [ -93.384718724304648, 44.864846781003365 ], [ -93.384469704976965, 44.86508797182195 ] ], [ [ -93.384463601480277, 44.864995342307303 ], [ -93.384435617007625, 44.864978289527102 ], [ -93.3844101932321, 44.864987226429108 ], [ -93.384408916288834, 44.865008628252433 ], [ -93.384426433243775, 44.86502211684008 ], [ -93.384465720486446, 44.865012150980334 ], [ -93.384463601480277, 44.864995342307303 ] ] ] } },
{ "type": "Feature", "properties": { "kind": "trees" }, "geometry": { "type": "Polygon", "coordinates": [ [ [ -93.383906638089414, 44.862645784637131 ], [ -93.383876817622209, 44.862634684838554 ], [ -93.383842083283795, 44.862643300981603 ], [ -93.383811934177203, 44.862614656706597 ], [ -93.383704229497084, 44.862593381278117 ], [ -93.383659812499815, 44.862646618633804 ], [ -93.383590415173359, 44.862699297384687 ], [ -93.383531555963657, 44.862773975105171 ], [ -93.383501705579036, 44.86275877977873 ], [ -93.383451794186001, 44.862768841654571 ], [ -93.383440319871099, 44.862755393203969 ], [ -93.383455145191363, 44.862735788314083 ], [ -93.383438827914972, 44.862725334324168 ], [ -93.383383392325413, 44.862763670013663 ], [ -93.383315076577148, 44.862766600501587 ], [ -93.383257837927147, 44.862723587967061 ], [ -93.383285498097067, 44.862687243010768 ], [ -93.383242272666408, 44.862666925387728 ], [ -93.383272243519485, 44.862640462405416 ], [ -93.383260828828696, 44.862602059053849 ], [ -93.383306232552343, 44.86257760561876 ], [ -93.383496065596091, 44.862576968273011 ], [ -93.383503597440196, 44.862591569336729 ], [ -93.383555671999531, 44.862593922619055 ], [ -93.38364038234252, 44.862576483801419 ], [ -93.383890976081872, 44.862575641489613 ], [ -93.383901168479071, 44.862593530762979 ], [ -93.383944334124479, 44.862605153172048 ], [ -93.383906638089414, 44.862645784637131 ] ] ] } },
{ "type": "Feature", "properties": { "kind": "trees" }, "geometry": { "type": "Polygon", "coordinates": [ [ [ -93.387154561302069, 44.865095105533506 ], [ -93.387127959888261, 44.865089794956063 ], [ -93.387091689113618, 44.865055803899992 ], [ -93.387033115312107, 44.865103619097908 ], [ -93.387021657869383, 44.86509287037989 ], [ -93.387037097737007, 44.865057030399491 ], [ -93.386979734860915, 44.865071392287426 ], [ -93.386968223156501, 44.865052541822379 ], [ -93.386987040263222, 44.865028178417944 ], [ -93.387026166788928, 44.865018952817429 ], [ -93.387020970177801, 44.864990249538295 ], [ -93.387039861905848, 44.864979387863883 ], [ -93.387165892212067, 44.865086970099362 ], [ -93.387154561302069, 44.865095105533506 ] ] ] } },
{ "type": "Feature", "properties": { "kind": "trees" }, "geometry": { "type": "Polygon", "coordinates": [ [ [ -93.387928275361801, 44.865513780647213 ], [ -93.387849859345877, 44.865436722719103 ], [ -93.387822404975552, 44.865455195054487 ], [ -93.387829337979355, 44.865487115960846 ], [ -93.387810466752612, 44.865503377660879 ], [ -93.387730538243289, 44.865473942523032 ], [ -93.387687278991578, 44.865444041216278 ], [ -93.387673495472725, 44.865455056791717 ], [ -93.387696519412756, 44.865501070133227 ], [ -93.387677666270079, 44.865520032391494 ], [ -93.387645997793328, 44.865485494339588 ], [ -93.387601589022125, 44.865498685484688 ], [ -93.38754814243363, 44.865455662781358 ], [ -93.387547541853138, 44.86540101143143 ], [ -93.387526041435379, 44.865384031978294 ], [ -93.387504232328524, 44.865386495469565 ], [ -93.387460598069723, 44.865428947228452 ], [ -93.387430168459403, 44.865418252369686 ], [ -93.387431076253847, 44.865372374155932 ], [ -93.38741344185253, 44.865342699344808 ], [ -93.387364925253877, 44.865315851007971 ], [ -93.387387437915407, 44.865275275077643 ], [ -93.38745162663092, 44.865223750050909 ], [ -93.38754209724263, 44.865333031436258 ], [ -93.387669229978485, 44.865435849496919 ], [ -93.38770263042008, 44.865406072414196 ], [ -93.387701724957537, 44.865381451557489 ], [ -93.387642581698543, 44.865382419290725 ], [ -93.387527868941248, 44.865263996074951 ], [ -93.387594810170782, 44.865243337728266 ], [ -93.387629727187203, 44.865163727041406 ], [ -93.387684365976227, 44.865138333726136 ], [ -93.387720459475901, 44.865104009450256 ], [ -93.387826879036183, 44.865119851960323 ], [ -93.387838372831439, 44.865136001857813 ], [ -93.387752250411154, 44.865242873677118 ], [ -93.387756488270441, 44.865307885161215 ], [ -93.387845517752496, 44.865396246110443 ], [ -93.387898048497235, 44.865412130990819 ], [ -93.3879217, 44.865422400000014 ], [ -93.387955514661243, 44.865435177892643 ], [ -93.387951410200273, 44.865428267112598 ], [ -93.387955623216399, 44.86542954109111 ], [ -93.388007453728207, 44.865432512810948 ], [ -93.38800808854343, 44.865527012420252 ], [ -93.387928275361801, 44.865513780647213 ] ] ] } },
{ "type": "Feature", "properties": { "kind": "trees" }, "geometry": { "type": "Polygon", "coordinates": [ [ [ -93.382701826843757, 44.865396392136553 ], [ -93.382589908005457, 44.865389014235028 ], [ -93.382542942389648, 44.865442824804916 ], [ -93.382508734907077, 44.865434842326856 ], [ -93.382508090855978, 44.865337637438465 ], [ -93.382542262862884, 44.865340223851682 ], [ -93.38255893702744, 44.865370215680571 ], [ -93.382591698598901, 44.86534816017484 ], [ -93.382656222325849, 44.865345243417082 ], [ -93.382694266155781, 44.865355918446497 ], [ -93.382717240321838, 44.865385532266806 ], [ -93.382701826843757, 44.865396392136553 ] ] ] } },
{ "type": "Feature", "properties": { "kind": "trees" }, "geometry": { "type": "MultiPolygon", "coordinates": [ [ [ [ -93.387248613473986, 44.865529589970485 ], [ -93.387229594932194, 44.865521557402403 ], [ -93.387227775681737, 44.865515609980001 ], [ -93.38725543402316, 44.865514814701207 ], [ -93.387248613473986, 44.865529589970485 ] ] ], [ [ [ -93.387095540834395, 44.865354588359942 ], [ -93.387172371295961, 44.865399473286892 ], [ -93.3871548, 44.8653982 ], [ -93.3871079, 44.8653688 ], [ -93.387095167780089, 44.865354749361821 ], [ -93.387095540834395, 44.865354588359942 ] ] ] ] } },
{ "type": "Feature", "properties": { "kind": "trees" }, "geometry": { "type": "Polygon", "coordinates": [ [ [ -93.384574631426929, 44.862607015944924 ], [ -93.3845541, 44.8626032 ], [ -93.384502, 44.8626009 ], [ -93.384493584291491, 44.862600702912083 ], [ -93.384404028468808, 44.862611712341874 ], [ -93.3843779, 44.8626201 ], [ -93.3843497, 44.8626307 ], [ -93.3843308, 44.8626452 ], [ -93.3842922, 44.8626769 ], [ -93.3842585, 44.8626981 ], [ -93.3842296, 44.8627214 ], [ -93.384197889199953, 44.862731225882428 ], [ -93.384184424106436, 44.862731271015299 ], [ -93.384133315949342, 44.862704315724493 ], [ -93.384085789802597, 44.862747806696945 ], [ -93.384044378818331, 44.862730465098288 ], [ -93.384005992108996, 44.862737272468323 ], [ -93.383990738319241, 44.862726526055127 ], [ -93.384000276870196, 44.86269460532862 ], [ -93.383975190468675, 44.862672576840858 ], [ -93.383993207636692, 44.862658548525815 ], [ -93.383993925251033, 44.86263470484824 ], [ -93.384030892589834, 44.862615211523028 ], [ -93.384040290436076, 44.862589904598899 ], [ -93.384027704957191, 44.862575181804594 ], [ -93.384046661938953, 44.862575118055481 ], [ -93.384082589821176, 44.862602124791039 ], [ -93.384115337354118, 44.862574876725908 ], [ -93.384167739944829, 44.862600809159055 ], [ -93.384187484456291, 44.862574634043526 ], [ -93.384244123802162, 44.86257445409224 ], [ -93.384279712267869, 44.862593579473177 ], [ -93.384301104501702, 44.862574262135006 ], [ -93.384597264864595, 44.86257326539323 ], [ -93.384601162897297, 44.862589439873631 ], [ -93.384574631426929, 44.862607015944924 ] ] ] } },
{ "type": "Feature", "properties": { "kind": "trees" }, "geometry": { "type": "Polygon", "coordinates": [ [ [ -93.387380061306402, 44.865877527462274 ], [ -93.387298834075622, 44.865903014751375 ], [ -93.387259105354701, 44.865961657033139 ], [ -93.387182938342448, 44.865973209073054 ], [ -93.38713791318537, 44.866010679467784 ], [ -93.387035506763198, 44.866027230414339 ], [ -93.387002131675004, 44.865968901613286 ], [ -93.386959094442489, 44.865957277541597 ], [ -93.386981591461392, 44.865924611004317 ], [ -93.386980152438099, 44.86590287974721 ], [ -93.386950992980459, 44.865881687031887 ], [ -93.386969237233444, 44.865843325560959 ], [ -93.38692206457975, 44.865823360936268 ], [ -93.386867135045293, 44.865836055357114 ], [ -93.386813797103898, 44.865809234481709 ], [ -93.386828753557523, 44.865784695438009 ], [ -93.386828390034793, 44.865720075253947 ], [ -93.386850794386817, 44.86571189175649 ], [ -93.386913987402622, 44.865722131212287 ], [ -93.386975771226787, 44.86568495829102 ], [ -93.386970071093771, 44.865670807601958 ], [ -93.38693791861192, 44.865679188904423 ], [ -93.386915405017675, 44.865671157570979 ], [ -93.386936491950621, 44.865626501749631 ], [ -93.386930124396798, 44.865600902390668 ], [ -93.38695659307426, 44.865587314418292 ], [ -93.386994657672332, 44.865600688646261 ], [ -93.387047604541451, 44.865646399828719 ], [ -93.3871243, 44.8657464 ], [ -93.387190684048164, 44.865721733786323 ], [ -93.387241983046934, 44.865718667916617 ], [ -93.38725372579438, 44.865726735672851 ], [ -93.38719895420526, 44.86576639282611 ], [ -93.387197419003485, 44.865789680712176 ], [ -93.387246729132443, 44.865815880923385 ], [ -93.387290371212544, 44.865868208939588 ], [ -93.387293179900738, 44.865867315042692 ], [ -93.387309700000017, 44.8658879 ], [ -93.387403289877156, 44.865846197203098 ], [ -93.387410053743793, 44.865856012177815 ], [ -93.387380061306402, 44.865877527462274 ] ] ] } },
{ "type": "Feature", "properties": { "kind": "trees" }, "geometry": { "type": "Polygon", "coordinates": [ [ [ -93.383319602511804, 44.86630982718286 ], [ -93.383267277148789, 44.866259908319556 ], [ -93.382984672029352, 44.866197523869985 ], [ -93.382916141093716, 44.866170747845437 ], [ -93.382858881427083, 44.866125044623068 ], [ -93.382881591392689, 44.866116871540115 ], [ -93.382956234531335, 44.866135515096801 ], [ -93.383003140112763, 44.866119164612805 ], [ -93.383044897892276, 44.866119024503256 ], [ -93.383121091353502, 44.866156573308295 ], [ -93.383125983249897, 44.866188512410901 ], [ -93.38315063808102, 44.866206573301589 ], [ -93.383180282494294, 44.866210655773493 ], [ -93.383220030243649, 44.866185953063471 ], [ -93.38333794623621, 44.866215263843074 ], [ -93.383392706758386, 44.866252442086278 ], [ -93.383444420652864, 44.866236512071673 ], [ -93.383528157252471, 44.866265935045554 ], [ -93.383547427690772, 44.866309062507177 ], [ -93.383319602511804, 44.86630982718286 ] ] ] } },
{ "type": "Feature", "properties": { "kind": "trees" }, "geometry": { "type": "Polygon", "coordinates": [ [ [ -93.383942112190667, 44.865116952106149 ], [ -93.383957585674324, 44.865167802691815 ], [ -93.383941737882807, 44.86518110676144 ], [ -93.383942741600407, 44.865222082310972 ], [ -93.383881245401327, 44.865312323462625 ], [ -93.383903037109093, 44.865338698924845 ], [ -93.383943303182349, 44.865303114595811 ], [ -93.383958541531243, 44.865313851011024 ], [ -93.383932663910414, 44.865336366039578 ], [ -93.383909749860791, 44.865400434243988 ], [ -93.383857632163597, 44.865449428091502 ], [ -93.383860868223394, 44.865473515878577 ], [ -93.383819764916211, 44.865490682042072 ], [ -93.383842433066079, 44.865554381539972 ], [ -93.383815930580468, 44.865565483763504 ], [ -93.383705455459008, 44.865511847090424 ], [ -93.38369750199459, 44.865457871131291 ], [ -93.383719923802545, 44.865405457037163 ], [ -93.383715479373635, 44.865341033743974 ], [ -93.383696498875807, 44.865309114001249 ], [ -93.383707243692385, 44.865209379365069 ], [ -93.383729722949212, 44.865163394143821 ], [ -93.383788736414289, 44.865104080240833 ], [ -93.383793686353215, 44.865074058027943 ], [ -93.383865261519148, 44.864987397322537 ], [ -93.383928144575677, 44.864938872516667 ], [ -93.383917765888782, 44.864890212414871 ], [ -93.383929110691057, 44.864881862185968 ], [ -93.383955723234052, 44.864889869693407 ], [ -93.38395586835702, 44.864965451623689 ], [ -93.383975134857124, 44.864998051384347 ], [ -93.383942112190667, 44.865116952106149 ] ] ] } },
{ "type": "Feature", "properties": { "kind": "fairway" }, "geometry": { "type": "Polygon", "coordinates": [ [ [ -93.3863052, 44.8640593 ], [ -93.3862732, 44.8640557 ], [ -93.3862196, 44.8640539 ], [ -93.3861619, 44.8640542 ], [ -93.3860995, 44.8640543 ], [ -93.386058300000016, 44.8640641 ], [ -93.385989600000016, 44.86410570000001 ], [ -93.3859411, 44.8641298 ], [ -93.385892, 44.8641401 ], [ -93.3858627, 44.8641468 ], [ -93.3858032, 44.864160700000014 ], [ -93.385755300000014, 44.8641708 ], [ -93.3857159, 44.8641798 ], [ -93.3856759, 44.8641858 ], [ -93.385642, 44.864186900000014 ], [ -93.3856064, 44.864186299999986 ], [ -93.3855608, 44.8641846 ], [ -93.3855188, 44.8641813 ], [ -93.3854894, 44.8641783 ], [ -93.3854495, 44.8641723 ], [ -93.3853979, 44.8641567 ], [ -93.3853712, 44.8641418 ], [ -93.3853437, 44.864120499999984 ], [ -93.3853279, 44.8640956 ], [ -93.3853185, 44.864066 ], [ -93.3853161, 44.8640355 ], [ -93.3853156, 44.8640032 ], [ -93.3853165, 44.8639675 ], [ -93.3853098, 44.8639169 ], [ -93.3852864, 44.8638793 ], [ -93.3852648, 44.863848599999983 ], [ -93.3852351, 44.8638173 ], [ -93.3851834, 44.863780799999979 ], [ -93.3851402, 44.8637536 ], [ -93.3850803, 44.863733 ], [ -93.3850247, 44.8637095 ], [ -93.3849813, 44.8636994 ], [ -93.3849425, 44.863684 ], [ -93.3849031, 44.8636593 ], [ -93.3848665, 44.8636328 ], [ -93.3848477, 44.8636043 ], [ -93.3848404, 44.8635739 ], [ -93.384835, 44.8635317 ], [ -93.3848335, 44.8634872 ], [ -93.3848333, 44.8634509 ], [ -93.3848329, 44.8634144 ], [ -93.3848321, 44.8633762 ], [ -93.3848239, 44.863346300000011 ], [ -93.3848086, 44.863316799999986 ], [ -93.3847882, 44.863287099999987 ], [ -93.384758300000016, 44.863254099999985 ], [ -93.3847267, 44.8632288 ], [ -93.3847004, 44.8632076 ], [ -93.3846734, 44.8631838 ], [ -93.384646, 44.8631646 ], [ -93.384610400000014, 44.8631433 ], [ -93.38457990000002, 44.8631284 ], [ -93.3845377, 44.8631181 ], [ -93.3844821, 44.8631123 ], [ -93.3844209, 44.8631039 ], [ -93.3843537, 44.8630928 ], [ -93.3843257, 44.863089 ], [ -93.3842995, 44.8630832 ], [ -93.3842738, 44.8630734 ], [ -93.3842361, 44.863034399999989 ], [ -93.3842175, 44.8630084 ], [ -93.3841885, 44.8629843 ], [ -93.3841497, 44.8629568 ], [ -93.3841183, 44.862934499999987 ], [ -93.3840748, 44.8629117 ], [ -93.384011, 44.862879 ], [ -93.3839938, 44.8628669 ], [ -93.3839735, 44.8628542 ], [ -93.3839721, 44.862831 ], [ -93.3839862, 44.862809 ], [ -93.3840072, 44.8627881 ], [ -93.3840207, 44.8627758 ], [ -93.3840452, 44.8627665 ], [ -93.3840806, 44.8627615 ], [ -93.3841194, 44.862752199999989 ], [ -93.3841577, 44.8627487 ], [ -93.384194100000016, 44.8627324 ], [ -93.3842296, 44.8627214 ], [ -93.3842585, 44.8626981 ], [ -93.3842922, 44.8626769 ], [ -93.3843308, 44.8626452 ], [ -93.3843497, 44.8626307 ], [ -93.3843779, 44.8626201 ], [ -93.384404028468808, 44.862611712341874 ], [ -93.384493584291491, 44.862600702912083 ], [ -93.384502, 44.8626009 ], [ -93.3845541, 44.8626032 ], [ -93.38460360000002, 44.862612399999989 ], [ -93.384666300000021, 44.8626321 ], [ -93.3847084, 44.8626511 ], [ -93.3847668, 44.8626987 ], [ -93.3848164, 44.8627446 ], [ -93.3848407, 44.8627692 ], [ -93.3848852, 44.8628127 ], [ -93.384911800000012, 44.8628481 ], [ -93.3849248, 44.8628729 ], [ -93.3849377, 44.8629176 ], [ -93.3849438, 44.862956899999986 ], [ -93.384961, 44.8629976 ], [ -93.3849893, 44.8630389 ], [ -93.3850118, 44.8630582 ], [ -93.3850557, 44.8630876 ], [ -93.385108300000013, 44.8631106 ], [ -93.3851568, 44.863130199999986 ], [ -93.3852173, 44.8631386 ], [ -93.3852757, 44.8631416 ], [ -93.3853266, 44.8631432 ], [ -93.3853824, 44.8631442 ], [ -93.3854406, 44.8631496 ], [ -93.3855024, 44.863162 ], [ -93.3855401, 44.8631713 ], [ -93.385612, 44.8632198 ], [ -93.385646800000018, 44.8632398 ], [ -93.385690200000013, 44.8632578 ], [ -93.3857288, 44.8632748 ], [ -93.3857751, 44.8632871 ], [ -93.385838, 44.86330920000001 ], [ -93.385882, 44.863325899999985 ], [ -93.3859277, 44.8633498 ], [ -93.385976, 44.8633867 ], [ -93.3860105, 44.863413799999989 ], [ -93.3861252, 44.8635248 ], [ -93.3861523, 44.8635455 ], [ -93.3861754, 44.8635599 ], [ -93.3862103, 44.8635834 ], [ -93.3862341, 44.86360650000001 ], [ -93.3862598, 44.8636379 ], [ -93.3862611, 44.8636764 ], [ -93.3862633, 44.8637177 ], [ -93.386251, 44.8637466 ], [ -93.3862562, 44.863769499999989 ], [ -93.386273, 44.8637838 ], [ -93.3863221, 44.8637993 ], [ -93.3863591, 44.8638154 ], [ -93.3864115, 44.8638355 ], [ -93.3864564, 44.863853 ], [ -93.3864924, 44.863868500000017 ], [ -93.3865247, 44.8638947 ], [ -93.3865414, 44.863913099999984 ], [ -93.3865441, 44.8639348 ], [ -93.3865448, 44.8639623 ], [ -93.3865428, 44.8639797 ], [ -93.3865223, 44.8640013 ], [ -93.386487, 44.8640266 ], [ -93.3864428, 44.8640498 ], [ -93.3863932, 44.8640592 ], [ -93.386362100000014, 44.8640629 ], [ -93.3863313, 44.8640603 ], [ -93.3863052, 44.8640593 ] ] ] } },
{ "type": "Feature", "properties": { "kind": "fairway" }, "geometry": { "type": "Polygon", "coordinates": [ [ [ -93.3879217, 44.865422400000014 ], [ -93.3878784, 44.8654036 ], [ -93.3878324, 44.8653816 ], [ -93.3878067, 44.8653559 ], [ -93.3877837, 44.86533330000001 ], [ -93.387766, 44.8653007 ], [ -93.3877669, 44.865275 ], [ -93.387774, 44.8652424 ], [ -93.3877917, 44.865211 ], [ -93.387799300896219, 44.865200736021471 ], [ -93.387832682698601, 44.865250041219383 ], [ -93.3878249, 44.865262 ], [ -93.3878187, 44.86527610000001 ], [ -93.3878174, 44.865293 ], [ -93.3878235, 44.8653081 ], [ -93.3878314, 44.8653195 ], [ -93.3878419, 44.8653291 ], [ -93.3878544, 44.8653406 ], [ -93.3878656, 44.8653513 ], [ -93.3878833, 44.865363 ], [ -93.3879065, 44.8653736 ], [ -93.387920133475745, 44.865379206289866 ], [ -93.387937550617309, 44.865404931384496 ], [ -93.387955514661243, 44.865435177892643 ], [ -93.3879217, 44.865422400000014 ] ] ] } },
{ "type": "Feature", "properties": { "kind": "fairway" }, "geometry": { "type": "Polygon", "coordinates": [ [ [ -93.3836421, 44.8633195 ], [ -93.383639, 44.8632987 ], [ -93.3836318, 44.8632824 ], [ -93.3835996, 44.8632556 ], [ -93.383563600000016, 44.8632296 ], [ -93.3835209, 44.86321310000001 ], [ -93.3834866, 44.8631983 ], [ -93.383475, 44.8631885 ], [ -93.383521400000021, 44.863183 ], [ -93.383547100000015, 44.8631894 ], [ -93.3835743, 44.863179 ], [ -93.3835858, 44.86316020000001 ], [ -93.3835863, 44.8631444 ], [ -93.3835877, 44.86312980000001 ], [ -93.3836132, 44.8631126 ], [ -93.3836302, 44.8631104 ], [ -93.3836494, 44.8631135 ], [ -93.383676100000017, 44.8631232 ], [ -93.3837072, 44.8631344 ], [ -93.3837423, 44.8631444 ], [ -93.3837967, 44.863155 ], [ -93.3838377, 44.8631628 ], [ -93.3838582, 44.863174199999989 ], [ -93.383866600000019, 44.8631928 ], [ -93.3838628, 44.863215899999986 ], [ -93.3838474, 44.8632415 ], [ -93.3838265, 44.8632646 ], [ -93.3838037, 44.8632921 ], [ -93.3837862, 44.863310199999987 ], [ -93.3837648, 44.8633217 ], [ -93.3837338, 44.8633207 ], [ -93.3837016, 44.86332010000001 ], [ -93.3836748, 44.863324099999986 ], [ -93.383654, 44.8633312 ], [ -93.3836269, 44.863342799999984 ], [ -93.3836421, 44.8633195 ] ] ] } },
{ "type": "Feature", "properties": { "kind": "water" }, "geometry": { "type": "Polygon", "coordinates": [ [ [ -93.386637, 44.8660888 ], [ -93.3866856, 44.8661829 ], [ -93.386779924375716, 44.866253842403118 ], [ -93.386765916443522, 44.866249796767121 ], [ -93.386688945734917, 44.866221024702938 ], [ -93.38661631134255, 44.866187025862345 ], [ -93.386548712786222, 44.866148127681548 ], [ -93.386531272342651, 44.866135895518866 ], [ -93.3865303, 44.8661296 ], [ -93.3865521, 44.866078 ], [ -93.3865863, 44.8660491 ], [ -93.386637, 44.8660888 ] ] ] } },
{ "type": "Feature", "properties": { "kind": "water" }, "geometry": { "type": "MultiPolygon", "coordinates": [ [ [ [ -93.3833845, 44.8636699 ], [ -93.3834153, 44.8636207 ], [ -93.3835708, 44.8635572 ], [ -93.3836696, 44.8635081 ], [ -93.383741200000017, 44.863436 ], [ -93.3838414, 44.8633878 ], [ -93.3838749, 44.8633398 ], [ -93.3839099, 44.8632991 ], [ -93.3839312, 44.8632476 ], [ -93.3839532, 44.8632031 ], [ -93.3839435, 44.8631371 ], [ -93.3839115, 44.8631108 ], [ -93.3838515, 44.8630911 ], [ -93.3837853, 44.8630699 ], [ -93.3837106, 44.8630507 ], [ -93.3836632, 44.862999 ], [ -93.3836449, 44.8629097 ], [ -93.3836393, 44.8628587 ], [ -93.3836293, 44.862801299999987 ], [ -93.3836385, 44.8627434 ], [ -93.3837234, 44.8627113 ], [ -93.3837491, 44.8627609 ], [ -93.3837324, 44.8627996 ], [ -93.3837308, 44.8628575 ], [ -93.3837524, 44.8629114 ], [ -93.3837679, 44.8629643 ], [ -93.3838149, 44.8629819 ], [ -93.3838751, 44.8629812 ], [ -93.3839491, 44.8629938 ], [ -93.384003, 44.8630255 ], [ -93.3840377, 44.8630709 ], [ -93.3840527, 44.8631131 ], [ -93.3840649, 44.8632368 ], [ -93.3840833, 44.8632814 ], [ -93.384131400000015, 44.8632973 ], [ -93.3841819, 44.86328360000001 ], [ -93.3842332, 44.8632711 ], [ -93.3843359, 44.8632399 ], [ -93.384345, 44.8632371 ], [ -93.3844329, 44.8632415 ], [ -93.3845531, 44.86330190000001 ], [ -93.3845866, 44.863358 ], [ -93.3846206, 44.8634342 ], [ -93.3845947, 44.8635082 ], [ -93.3845721, 44.8635311 ], [ -93.3845768, 44.8636593 ], [ -93.3846498, 44.8637701 ], [ -93.3847325, 44.863824 ], [ -93.3847686, 44.8638557 ], [ -93.3848415, 44.8638695 ], [ -93.3849342, 44.8638972 ], [ -93.3850331, 44.8639678 ], [ -93.3850534, 44.8640949 ], [ -93.385004333436683, 44.864142043401692 ], [ -93.384604836246524, 44.863866001545169 ], [ -93.383911410975017, 44.863951243809431 ], [ -93.3838796, 44.863906199999988 ], [ -93.383802, 44.8638589 ], [ -93.3837389, 44.8638306 ], [ -93.3836578, 44.8638092 ], [ -93.3835679, 44.8638592 ], [ -93.3835355, 44.8638684 ], [ -93.3834878, 44.8638512 ], [ -93.3833622, 44.8638423 ], [ -93.3831838, 44.863885 ], [ -93.383125440786117, 44.863984750314174 ], [ -93.383086710433986, 44.863977108191662 ], [ -93.383005604911034, 44.863954814436624 ], [ -93.382928136468436, 44.863927036609084 ], [ -93.382983, 44.8639043 ], [ -93.3832918, 44.863780599999984 ], [ -93.3833845, 44.8636699 ] ] ], [ [ [ -93.3853196, 44.86444250000001 ], [ -93.3853611, 44.864443900000012 ], [ -93.3854709, 44.8644044 ], [ -93.3854791, 44.8644006 ], [ -93.3855741, 44.8643569 ], [ -93.3856862, 44.8643214 ], [ -93.3858328, 44.864293 ], [ -93.385876, 44.8643057 ], [ -93.3859254, 44.8642864 ], [ -93.3861007, 44.8642139 ], [ -93.3862293, 44.8641817 ], [ -93.3864082, 44.864231599999989 ], [ -93.3865438, 44.8642577 ], [ -93.3866595, 44.864303 ], [ -93.3867841, 44.8643063 ], [ -93.3869027, 44.8643285 ], [ -93.387051, 44.8643484 ], [ -93.3871244, 44.8643886 ], [ -93.3871754, 44.8644384 ], [ -93.387201, 44.8644796 ], [ -93.3872477, 44.8645137 ], [ -93.3873186, 44.8645127 ], [ -93.387330221525914, 44.864507891881857 ], [ -93.387398730025083, 44.864609082134947 ], [ -93.387372, 44.8645761 ], [ -93.38732, 44.86453680000001 ], [ -93.3872517, 44.8645352 ], [ -93.3872461, 44.8645416 ], [ -93.3872151, 44.864577 ], [ -93.387158, 44.8645993 ], [ -93.3870589, 44.8646194 ], [ -93.3868826, 44.8646219 ], [ -93.3867994, 44.8646517 ], [ -93.3867637, 44.8646928 ], [ -93.386811, 44.8648071 ], [ -93.3868424, 44.8649882 ], [ -93.3869223, 44.8650264 ], [ -93.3869315, 44.8650308 ], [ -93.3869403, 44.8650958 ], [ -93.3869872, 44.8651171 ], [ -93.3869999, 44.8651503 ], [ -93.3870126, 44.8652252 ], [ -93.3870444, 44.865278 ], [ -93.3870741, 44.8653315 ], [ -93.3871079, 44.8653688 ], [ -93.3871548, 44.8653982 ], [ -93.3872307, 44.8654037 ], [ -93.3873013, 44.865443499999984 ], [ -93.3873592, 44.8654581 ], [ -93.3875158, 44.865474399999989 ], [ -93.3875552, 44.865481 ], [ -93.387585, 44.8654998 ], [ -93.3875373, 44.8655166 ], [ -93.3874807, 44.8655144 ], [ -93.3873568, 44.8655119 ], [ -93.3872003, 44.8655164 ], [ -93.3870537, 44.865529 ], [ -93.3869494, 44.8655537 ], [ -93.3867931, 44.8656126 ], [ -93.3867892, 44.8656775 ], [ -93.3867404, 44.8657182 ], [ -93.3867148, 44.8657722 ], [ -93.3866677, 44.865805 ], [ -93.386616, 44.865817599999986 ], [ -93.3865999, 44.8657692 ], [ -93.3865881, 44.8656966 ], [ -93.3866086, 44.8656225 ], [ -93.3864611, 44.865363 ], [ -93.386403500000014, 44.8652496 ], [ -93.3862934, 44.8651632 ], [ -93.3861659, 44.8650593 ], [ -93.3860356, 44.8649795 ], [ -93.3859416, 44.8648455 ], [ -93.3859391, 44.864686399999982 ], [ -93.3859431, 44.8646688 ], [ -93.3859795, 44.8645088 ], [ -93.3860848, 44.8643726 ], [ -93.3860689, 44.8643587 ], [ -93.3859779, 44.8643495 ], [ -93.385888, 44.8643667 ], [ -93.3855506, 44.8644883 ], [ -93.3854218, 44.8645644 ], [ -93.385404639661573, 44.86456880096469 ], [ -93.385319198037152, 44.864442591615543 ], [ -93.3853196, 44.86444250000001 ] ] ] ] } },
{ "type": "Feature", "properties": { "kind": "tee" }, "geometry": { "type": "Polygon", "coordinates": [ [ [ -93.3825863, 44.8636571 ], [ -93.382579280509859, 44.863669111709356 ], [ -93.382573502849951, 44.863661847032553 ], [ -93.382565546391916, 44.86364905859454 ], [ -93.3825863, 44.8636571 ] ] ] } },
{ "type": "Feature", "properties": { "kind": "tee" }, "geometry": { "type": "Polygon", "coordinates": [ [ [ -93.3864234, 44.863799499999985 ], [ -93.3864795, 44.8637285 ], [ -93.3865983, 44.8637849 ], [ -93.3865355, 44.863848 ], [ -93.3864234, 44.863799499999985 ] ] ] } },
{ "type": "Feature", "properties": { "kind": "tee" }, "geometry": { "type": "Polygon", "coordinates": [ [ [ -93.3869091, 44.864211499999989 ], [ -93.3867017, 44.8641043 ], [ -93.3868036, 44.8640087 ], [ -93.3870217, 44.8641315 ], [ -93.3869091, 44.864211499999989 ] ] ] } },
{ "type": "Feature", "properties": { "kind": "tee" }, "geometry": { "type": "Polygon", "coordinates": [ [ [ -93.387347, 44.8651327 ], [ -93.387058, 44.8649278 ], [ -93.3871559, 44.8648607 ], [ -93.3874348, 44.8650782 ], [ -93.387347, 44.8651327 ] ] ] } },
{ "type": "Feature", "properties": { "kind": "tee" }, "geometry": { "type": "Polygon", "coordinates": [ [ [ -93.3871243, 44.8657464 ], [ -93.387044, 44.865641700000012 ], [ -93.3871511, 44.8656037 ], [ -93.3872263, 44.8657085 ], [ -93.3871243, 44.8657464 ] ] ] } },
{ "type": "Feature", "properties": { "kind": "tee" }, "geometry": { "type": "Polygon", "coordinates": [ [ [ -93.387309700000017, 44.8658879 ], [ -93.3872463, 44.8658089 ], [ -93.3873558, 44.8657654 ], [ -93.3874163, 44.8658404 ], [ -93.387309700000017, 44.8658879 ] ] ] } },
{ "type": "Feature", "properties": { "kind": "tee" }, "geometry": { "type": "Polygon", "coordinates": [ [ [ -93.3874246, 44.8662644 ], [ -93.387534926740457, 44.866241679835412 ], [ -93.387523596933462, 44.866246058707844 ], [ -93.387443492901781, 44.866270119569585 ], [ -93.387427631379239, 44.866273626998179 ], [ -93.3874246, 44.8662644 ] ] ] } },
{ "type": "Feature", "properties": { "kind": "tee" }, "geometry": { "type": "Polygon", "coordinates": [ [ [ -93.3828709, 44.863639099999986 ], [ -93.3830281, 44.8637308 ], [ -93.382933, 44.8638143 ], [ -93.3827819, 44.8637215 ], [ -93.3828709, 44.863639099999986 ] ] ] } },
{ "type": "Feature", "properties": { "kind": "bunker" }, "geometry": { "type": "Polygon", "coordinates": [ [ [ -93.3834955, 44.8631729 ], [ -93.3834876, 44.8631686 ], [ -93.3834778, 44.8631636 ], [ -93.3834661, 44.863163299999989 ], [ -93.383455900000016, 44.8631668 ], [ -93.3834505, 44.8631708 ], [ -93.3834436, 44.863176 ], [ -93.3834379, 44.863179 ], [ -93.3834321, 44.86318 ], [ -93.3834245, 44.8631778 ], [ -93.3834188, 44.863171399999985 ], [ -93.3834117, 44.8631681 ], [ -93.3834009, 44.8631673 ], [ -93.383395600000014, 44.8631659 ], [ -93.3833884, 44.8631598 ], [ -93.3833904, 44.863153099999984 ], [ -93.3833953, 44.863149 ], [ -93.3834013, 44.8631466 ], [ -93.3834079, 44.8631454 ], [ -93.3834142, 44.8631457 ], [ -93.3834201, 44.8631436 ], [ -93.3834236, 44.8631405 ], [ -93.38343, 44.8631377 ], [ -93.3834379, 44.8631343 ], [ -93.3834437, 44.8631329 ], [ -93.38345, 44.8631321 ], [ -93.3834535, 44.8631289 ], [ -93.3834557, 44.8631224 ], [ -93.3834555, 44.8631175 ], [ -93.3834564, 44.8631115 ], [ -93.3834608, 44.863107299999989 ], [ -93.3834677, 44.8631035 ], [ -93.3834777, 44.8631038 ], [ -93.3834846, 44.8631066 ], [ -93.3834983, 44.8631075 ], [ -93.3835069, 44.8631048 ], [ -93.383518, 44.8630996 ], [ -93.38352660000001, 44.8630995 ], [ -93.3835349, 44.8631035 ], [ -93.383540300000021, 44.8631087 ], [ -93.3835475, 44.8631175 ], [ -93.38355150000001, 44.8631253 ], [ -93.3835561, 44.8631345 ], [ -93.3835586, 44.8631447 ], [ -93.3835536, 44.8631522 ], [ -93.3835462, 44.863157699999988 ], [ -93.383541, 44.8631643 ], [ -93.3835395, 44.863170099999984 ], [ -93.3835364, 44.8631752 ], [ -93.3835291, 44.86318 ], [ -93.383521400000021, 44.863183 ], [ -93.3835118, 44.8631834 ], [ -93.383504500000015, 44.8631816 ], [ -93.3835003, 44.8631785 ], [ -93.3834955, 44.8631729 ] ] ] } },
{ "type": "Feature", "properties": { "kind": "green" }, "geometry": { "type": "Polygon", "coordinates": [ [ [ -93.3879065, 44.8653736 ], [ -93.3878833, 44.865363 ], [ -93.3878656, 44.8653513 ], [ -93.3878544, 44.8653406 ], [ -93.3878419, 44.8653291 ], [ -93.3878314, 44.8653195 ], [ -93.3878235, 44.8653081 ], [ -93.3878174, 44.865293 ], [ -93.3878187, 44.86527610000001 ], [ -93.3878249, 44.865262 ], [ -93.387832682698601, 44.865250041219383 ], [ -93.387920133475745, 44.865379206289866 ], [ -93.3879065, 44.8653736 ] ] ] } },
{ "type": "Feature", "properties": { "kind": "green" }, "geometry": { "type": "Polygon", "coordinates": [ [ [ -93.3836144, 44.8633017 ], [ -93.3836169, 44.8633105 ], [ -93.383615400000011, 44.8633188 ], [ -93.383609400000012, 44.8633293 ], [ -93.383599, 44.8633361 ], [ -93.383583, 44.8633446 ], [ -93.3835682, 44.8633532 ], [ -93.3835544, 44.8633623 ], [ -93.3835449, 44.863367699999984 ], [ -93.3835359, 44.8633756 ], [ -93.3835291, 44.8633805 ], [ -93.3835156, 44.8633935 ], [ -93.3834999, 44.8634058 ], [ -93.38348520000001, 44.863417 ], [ -93.3834711, 44.8634276 ], [ -93.3834601, 44.8634391 ], [ -93.3834468, 44.8634495 ], [ -93.3834284, 44.8634583 ], [ -93.3834122, 44.863465 ], [ -93.3833919, 44.8634746 ], [ -93.3833757, 44.8634819 ], [ -93.3833582, 44.8634906 ], [ -93.3833409, 44.8634985 ], [ -93.3833291, 44.8635046 ], [ -93.3833118, 44.8635126 ], [ -93.3832992, 44.8635177 ], [ -93.383286, 44.8635206 ], [ -93.3832695, 44.8635229 ], [ -93.3832455, 44.8635233 ], [ -93.3832248, 44.8635214 ], [ -93.3832049, 44.8635173 ], [ -93.3831892, 44.863511 ], [ -93.383174600000018, 44.8635014 ], [ -93.383163, 44.8634881 ], [ -93.383157700000012, 44.863474899999986 ], [ -93.383154100000013, 44.8634643 ], [ -93.3831514, 44.8634512 ], [ -93.383149, 44.8634429 ], [ -93.3831512, 44.8634331 ], [ -93.383158, 44.8634211 ], [ -93.3831693, 44.8634076 ], [ -93.3831835, 44.863393200000012 ], [ -93.3831936, 44.863384 ], [ -93.3832028, 44.8633741 ], [ -93.383218400000018, 44.863362 ], [ -93.383234, 44.8633489 ], [ -93.3832515, 44.8633387 ], [ -93.3832966, 44.8633121 ], [ -93.3833166, 44.8632988 ], [ -93.3833271, 44.8632875 ], [ -93.3833442, 44.8632714 ], [ -93.3833627, 44.863250899999983 ], [ -93.3833742, 44.8632364 ], [ -93.3833909, 44.8632242 ], [ -93.3834046, 44.8632177 ], [ -93.3834196, 44.8632105 ], [ -93.383435800000015, 44.8632076 ], [ -93.383453, 44.8632084 ], [ -93.3834619, 44.8632092 ], [ -93.3834837, 44.8632161 ], [ -93.383508, 44.8632246 ], [ -93.3835372, 44.863241 ], [ -93.3835588, 44.863255899999984 ], [ -93.3835795, 44.8632717 ], [ -93.383603, 44.8632907 ], [ -93.3836144, 44.8633017 ] ] ] } },
{ "type": "Feature", "properties": { "kind": "hole" }, "geometry": { "type": "LineString", "coordinates": [ [ -93.3871392, 44.8656783 ], [ -93.385943800000021, 44.8639126 ], [ -93.3848986, 44.8631904 ], [ -93.3833652, 44.8633789 ] ] } }
]
}
