{
"type": "FeatureCollection",
"name": "hole16_area",
"crs": { "type": "name", "properties": { "name": "urn:ogc:def:crs:OGC:1.3:CRS84" } },
"features": [
{ "type": "Feature", "properties": { }, "geometry": { "type": "Polygon", "coordinates": [ [ [ -93.385213640488146, 44.864286667345688 ], [ -93.384604836246524, 44.863866001545169 ], [ -93.383516107369559, 44.863999836198325 ], [ -93.383429801620579, 44.864007365772686 ], [ -93.383342873701793, 44.864008842813 ], [ -93.383256160803811, 44.864004253093995 ], [ -93.38317049804624, 44.863993640818485 ], [ -93.383086710433986, 44.863977108191662 ], [ -93.383005604911034, 44.863954814436624 ], [ -93.382927962588155, 44.863926974260821 ], [ -93.382854531219721, 44.863893855788014 ], [ -93.382786018001696, 44.863855777975857 ], [ -93.382723082760521, 44.863813107543798 ], [ -93.382666331598429, 44.863766255441 ], [ -93.382616311056225, 44.86371567288834 ], [ -93.382573502849951, 44.863661847032553 ], [ -93.382538319232083, 44.863605296254278 ], [ -93.382511099021869, 44.863546565175639 ], [ -93.382492104342958, 44.863486219414803 ], [ -93.382481518099823, 44.863424840138599 ], [ -93.38247944221736, 44.863363018465435 ], [ -93.382485896660185, 44.86330134977235 ], [ -93.382500819241514, 44.863240427961273 ], [ -93.382524066222985, 44.86318083973935 ], [ -93.382555413700004, 44.863123158968911 ], [ -93.382594559758971, 44.863067941140862 ], [ -93.382641127385597, 44.863015718025437 ], [ -93.382694668096434, 44.862966992551129 ], [ -93.382754666258435, 44.862922233961605 ], [ -93.382820544055093, 44.862881873296963 ], [ -93.382891667051126, 44.862846299242932 ], [ -93.38296735030228, 44.86281585438806 ], [ -93.383046864951439, 44.862790831924642 ], [ -93.383129445247306, 44.862771472825514 ], [ -93.38321429591835, 44.862757963523585 ], [ -93.384747679954899, 44.862569465583803 ], [ -93.384830485028758, 44.862562121902855 ], [ -93.384913894259171, 44.862560350961381 ], [ -93.384997167834001, 44.862564168466946 ], [ -93.38507956714416, 44.86257354055946 ], [ -93.385160361334329, 44.862588384111433 ], [ -93.38523883378474, 44.862608567465266 ], [ -93.385314288466759, 44.862633911600817 ], [ -93.385386056116062, 44.862664191723255 ], [ -93.385453500168367, 44.862699139256598 ], [ -93.385516022405412, 44.862738444225812 ], [ -93.386561221870451, 44.863460638633953 ], [ -93.386614556940927, 44.863500873029018 ], [ -93.386662727162431, 44.863544277793999 ], [ -93.38670536161041, 44.863590518710467 ], [ -93.38674213198361, 44.863639239720669 ], [ -93.387937550617309, 44.865404931384496 ], [ -93.387971384096332, 44.86546189762673 ], [ -93.387997203277905, 44.865520947962537 ], [ -93.388014759486794, 44.865581513710431 ], [ -93.388023883622083, 44.865643011592994 ], [ -93.388024487786709, 44.865704849354131 ], [ -93.388016566134951, 44.86576643146261 ], [ -93.388000194929788, 44.865827164847417 ], [ -93.387975531809488, 44.865886464609403 ], [ -93.387942814270403, 44.865943759654265 ], [ -93.387902357380653, 44.865998498192816 ], [ -93.387854550746624, 44.86605015305512 ], [ -93.387799854761411, 44.866098226767832 ], [ -93.387738796171462, 44.866142256345455 ], [ -93.387671963003839, 44.866181817749471 ], [ -93.387599998903312, 44.86621652997249 ], [ -93.387523596933462, 44.866246058707844 ], [ -93.387443492901781, 44.866270119569585 ], [ -93.387360458272795, 44.866288480831486 ], [ -93.387275292737783, 44.86630096565905 ], [ -93.38718881651242, 44.866307453812681 ], [ -93.387101862436694, 44.866307882805813 ], [ -93.38701526795316, 44.866302248506756 ], [ -93.386929867040891, 44.866290605178584 ], [ -93.386846482182762, 44.866273064956353 ], [ -93.386765916443522, 44.866249796767121 ], [ -93.386688945734917, 44.866221024702938 ], [ -93.38661631134255, 44.866187025862345 ], [ -93.386548712786222, 44.866148127681548 ], [ -93.38648680108281, 44.866104704780689 ], [ -93.386431172476378, 44.866057175355614 ], [ -93.386382362695983, 44.866005997150147 ], [ -93.38634084179651, 44.865951663047333 ], [ -93.385213640488146, 44.864286667345688 ] ] ] } }
]
}
