{
"type": "FeatureCollection",
"name": "practice_osm",
"crs": { "type": "name", "properties": { "name": "urn:ogc:def:crs:OGC:1.3:CRS84" } },
"features": [
{ "type": "Feature", "properties": { "kind": "green", "label": "Chipping 1" }, "geometry": { "type": "Polygon", "coordinates": [ [ [ -93.3854909, 44.8679625 ], [ -93.385477200000011, 44.8678766 ], [ -93.3854047, 44.8677707 ], [ -93.3853492, 44.8677309 ], [ -93.3852625, 44.86775 ], [ -93.3852271, 44.867801 ], [ -93.385209, 44.8678716 ], [ -93.3852308, 44.867923 ], [ -93.3852853, 44.867967299999982 ], [ -93.3853504, 44.867990700000014 ], [ -93.3854241, 44.8680077 ], [ -93.385472800000016, 44.8679967 ], [ -93.3854909, 44.8679625 ] ] ] } },
{ "type": "Feature", "properties": { "kind": "green", "label": "Chipping 2" }, "geometry": { "type": "Polygon", "coordinates": [ [ [ -93.3849551, 44.8679871 ], [ -93.3849567, 44.8679384 ], [ -93.3848952, 44.8678931 ], [ -93.3848697, 44.8678398 ], [ -93.3848307, 44.8677827 ], [ -93.384776, 44.8677676 ], [ -93.3847097, 44.8677974 ], [ -93.3846855, 44.8678312 ], [ -93.3846736, 44.8679061 ], [ -93.3846697, 44.8679971 ], [ -93.3846963, 44.8680377 ], [ -93.3847238, 44.8680548 ], [ -93.3847763, 44.8680623 ], [ -93.3848705, 44.8680456 ], [ -93.384915, 44.8680225 ], [ -93.3849551, 44.8679871 ] ] ] } },
{ "type": "Feature", "properties": { "kind": "green", "label": "Putting green" }, "geometry": { "type": "Polygon", "coordinates": [ [ [ -93.3839735, 44.8681334 ], [ -93.3840668, 44.8681124 ], [ -93.384158, 44.8681229 ], [ -93.384245, 44.8681274 ], [ -93.3843404, 44.8681018 ], [ -93.3843807, 44.8680447 ], [ -93.3843447, 44.8678713 ], [ -93.3843169, 44.867810099999986 ], [ -93.3842309, 44.8677995 ], [ -93.3841307, 44.8678199 ], [ -93.3840435, 44.867836299999986 ], [ -93.3839186, 44.8678624 ], [ -93.3838279, 44.8679206 ], [ -93.3837869, 44.8679635 ], [ -93.3837487, 44.8680237 ], [ -93.383789, 44.8680808 ], [ -93.3838781, 44.8681244 ], [ -93.3839735, 44.8681334 ] ] ] } },
{ "type": "Feature", "properties": { "kind": "bunker", "label": "" }, "geometry": { "type": "Polygon", "coordinates": [ [ [ -93.3853358, 44.8680257 ], [ -93.3852929, 44.8680038 ], [ -93.3852482, 44.8680004 ], [ -93.3852273, 44.8679769 ], [ -93.3852088, 44.8679433 ], [ -93.3851886, 44.8679339 ], [ -93.3851503, 44.8679576 ], [ -93.3851359, 44.8679773 ], [ -93.3851483, 44.8679976 ], [ -93.3851788, 44.8680133 ], [ -93.3852183, 44.8680376 ], [ -93.3852624, 44.868048899999984 ], [ -93.3853267, 44.8680504 ], [ -93.3853429, 44.8680428 ], [ -93.3853358, 44.8680257 ] ] ] } },
{ "type": "Feature", "properties": { "kind": "bunker", "label": "" }, "geometry": { "type": "Polygon", "coordinates": [ [ [ -93.3851978, 44.8677742 ], [ -93.3851554, 44.8677544 ], [ -93.3851181, 44.8677524 ], [ -93.3850807, 44.8678156 ], [ -93.3850907, 44.8678426 ], [ -93.3851245, 44.867849 ], [ -93.385152100000013, 44.8678397 ], [ -93.3851817, 44.8678225 ], [ -93.3851978, 44.8677742 ] ] ] } },
{ "type": "Feature", "properties": { "kind": "green", "label": "Range green" }, "geometry": { "type": "Polygon", "coordinates": [ [ [ -93.382320244443804, 44.868458758985319 ], [ -93.382312738733717, 44.868472286252732 ], [ -93.382271148436573, 44.868499428588947 ], [ -93.3822218882828, 44.868515797221526 ], [ -93.382176385089537, 44.868521969183071 ], [ -93.382058894874589, 44.86856225349819 ], [ -93.382005633956382, 44.868546227838927 ], [ -93.381975097222508, 44.868522028674995 ], [ -93.381974918664994, 44.868495030869497 ], [ -93.381986150726334, 44.868470687539627 ], [ -93.382004977899115, 44.86844631986795 ], [ -93.382023871841668, 44.868432756863037 ], [ -93.382057977302509, 44.868421840276618 ], [ -93.382095902121733, 44.868418394683417 ], [ -93.382186827675142, 44.868380899545926 ], [ -93.382243780403797, 44.868380708936286 ], [ -93.382278010922292, 44.868388696218901 ], [ -93.382316160932845, 44.86841557153847 ], [ -93.382320244443804, 44.868458758985319 ] ] ] } },
{ "type": "Feature", "properties": { "kind": "cartpath", "label": "" }, "geometry": { "type": "LineString", "coordinates": [ [ -93.381799446956308, 44.8688247203497 ], [ -93.3818404, 44.868791 ], [ -93.3820659, 44.8686368 ], [ -93.3823553, 44.8685105 ], [ -93.3827891, 44.86832170000001 ] ] } },
{ "type": "Feature", "properties": { "kind": "cartpath", "label": "" }, "geometry": { "type": "LineString", "coordinates": [ [ -93.3818404, 44.868791 ], [ -93.381842525833292, 44.868839264356254 ] ] } },
{ "type": "Feature", "properties": { "kind": "cartpath", "label": "" }, "geometry": { "type": "LineString", "coordinates": [ [ -93.385775905381578, 44.868225962454751 ], [ -93.385738, 44.8682035 ], [ -93.3856794, 44.8681626 ], [ -93.3855692, 44.8681159 ], [ -93.3854155, 44.8680904 ], [ -93.3852793, 44.868089799999986 ], [ -93.3849447, 44.868123199999985 ], [ -93.3847862, 44.8681617 ], [ -93.3846925, 44.868159399999989 ], [ -93.3845965, 44.8681217 ], [ -93.3845724, 44.8680708 ], [ -93.3845292, 44.867985399999988 ], [ -93.3844889, 44.8678697 ], [ -93.384478, 44.8678028 ], [ -93.3844774, 44.8676795 ], [ -93.3845167, 44.8676159 ], [ -93.3845276, 44.8675858 ] ] } },
{ "type": "Feature", "properties": { "kind": "cartpath", "label": "" }, "geometry": { "type": "LineString", "coordinates": [ [ -93.3845276, 44.8675858 ], [ -93.3846373, 44.8674729 ], [ -93.384643280153426, 44.867457963420648 ] ] } }
]
}
