{
"type": "FeatureCollection",
"name": "practice_traced_greens",
"crs": { "type": "name", "properties": { "name": "urn:ogc:def:crs:EPSG::26915" } },
"features": [
{ "type": "Feature", "properties": { "label": "Chipping 1", "iou": 0.84576864051260359 }, "geometry": { "type": "Polygon", "coordinates": [ [ [ 469548.723063052922953, 4968354.087803261354566 ], [ 469549.323063052957878, 4968356.487803261727095 ], [ 469550.222834312473424, 4968357.687529285438359 ], [ 469553.821933260478545, 4968358.587526947259903 ], [ 469558.621933261514641, 4968357.687526946887374 ], [ 469563.121885687403847, 4968355.587529284879565 ], [ 469566.421885687625036, 4968353.187529284507036 ], [ 469569.421659420477226, 4968349.287752929143608 ], [ 469570.621656947070733, 4968346.28780326154083 ], [ 469571.222360000014305, 4968343.273496498353779 ], [ 469570.633888831769582, 4968338.371175806969404 ], [ 469572.421659420477226, 4968337.287752929143608 ], [ 469572.421656440768857, 4968335.788646436296403 ], [ 469571.521658543788362, 4968333.988689232617617 ], [ 469570.621894114010502, 4968333.088931130245328 ], [ 469569.126673581893556, 4968333.691441929899156 ], [ 469566.721894113987219, 4968330.688931129872799 ], [ 469564.321942605427466, 4968329.48893351200968 ], [ 469560.422777394240256, 4968329.188933512195945 ], [ 469558.022825885855127, 4968330.088931129314005 ], [ 469555.023061456216965, 4968333.088689231313765 ], [ 469552.323061456205323, 4968338.488689232617617 ], [ 469549.623063559294678, 4968346.288646435365081 ], [ 469548.723063559213188, 4968351.088646435178816 ], [ 469548.723063052922953, 4968354.087803261354566 ] ] ] } },
{ "type": "Feature", "properties": { "label": "Chipping 2", "iou": 0.85794710836929877 }, "geometry": { "type": "Polygon", "coordinates": [ [ [ 469590.423064888396766, 4968353.788647296838462 ], [ 469591.32306258805329, 4968357.087757868692279 ], [ 469592.82306258805329, 4968359.487757869064808 ], [ 469594.622830114269163, 4968361.287525394000113 ], [ 469596.722783290490042, 4968362.487523093819618 ], [ 469604.222783290490042, 4968364.287523093633354 ], [ 469607.807632809388451, 4968364.288225994445384 ], [ 469611.421661387430504, 4968362.18775786831975 ], [ 469612.921659087121952, 4968359.187804692424834 ], [ 469613.521659087098669, 4968356.787804692052305 ], [ 469613.521659087098669, 4968352.888647297397256 ], [ 469611.421659087121952, 4968336.988647297024727 ], [ 469609.321893861226272, 4968333.688926595263183 ], [ 469607.221940685005393, 4968332.488928895443678 ], [ 469603.922783290501684, 4968332.188928895629942 ], [ 469600.023062588064931, 4968334.88869412150234 ], [ 469598.523064888373483, 4968337.588647296652198 ], [ 469596.998806373798288, 4968344.135828543454409 ], [ 469596.044414183241315, 4968346.065098631195724 ], [ 469591.623062588099856, 4968350.188694121316075 ], [ 469590.423064888396766, 4968353.788647296838462 ] ] ] } },
{ "type": "Feature", "properties": { "label": "Putting green", "iou": 0.81109674521404074 }, "geometry": { "type": "Polygon", "coordinates": [ [ [ 469637.823063053016085, 4968361.887803261168301 ], [ 469638.723060579504818, 4968364.287752929143608 ], [ 469640.523060579551384, 4968366.987752929329872 ], [ 469643.222834312648047, 4968369.387529285624623 ], [ 469645.622786738793366, 4968370.287526946514845 ], [ 469647.12193326104898, 4968370.287526946514845 ], [ 469648.921526262944099, 4968369.129897965118289 ], [ 469650.721933261025697, 4968369.087526947259903 ], [ 469654.6747399806045, 4968367.311788846738636 ], [ 469660.241220000025351, 4968366.388230000622571 ], [ 469662.969980017340276, 4968366.711788846179843 ], [ 469671.422786738898139, 4968369.387526947073638 ], [ 469674.121933261514641, 4968369.387526947073638 ], [ 469678.621885687636677, 4968368.187529284507036 ], [ 469682.221659420465585, 4968364.887752927839756 ], [ 469683.721659420465585, 4968362.787752929143608 ], [ 469684.621656947070733, 4968360.387803261168301 ], [ 469684.621658543823287, 4968356.188689232803881 ], [ 469683.853331571386661, 4968355.3404421787709 ], [ 469683.721658543800004, 4968353.788689232431352 ], [ 469681.621894114010502, 4968351.088931130245328 ], [ 469677.544890343677253, 4968348.23869073856622 ], [ 469673.221894113987219, 4968344.188931129872799 ], [ 469668.721894113987219, 4968341.488931129686534 ], [ 469665.121942606172524, 4968340.288933512754738 ], [ 469660.058626065670978, 4968339.659768102690578 ], [ 469649.22194260568358, 4968335.188933512195945 ], [ 469644.122777394135483, 4968334.888933512382209 ], [ 469641.122905411291867, 4968336.688763037323952 ], [ 469639.023061456216965, 4968339.988689232617617 ], [ 469638.925774248142261, 4968351.267732127569616 ], [ 469637.82306355930632, 4968356.488646436482668 ], [ 469637.823063053016085, 4968361.887803261168301 ] ] ] } },
{ "type": "Feature", "properties": { "label": "Range green", "iou": 0.80115569953043508 }, "geometry": { "type": "Polygon", "coordinates": [ [ [ 469797.123060579586308, 4968405.087752928957343 ], [ 469798.22001283580903, 4968406.950238444842398 ], [ 469797.723061456170399, 4968407.788689232431352 ], [ 469797.723063052922953, 4968409.28780326154083 ], [ 469799.522834313160274, 4968411.987529285252094 ], [ 469805.222786739468575, 4968415.587526947259903 ], [ 469807.322786738863215, 4968416.187526946887374 ], [ 469809.118231781176291, 4968416.002089707180858 ], [ 469811.213815515977331, 4968416.863774393685162 ], [ 469812.122834312496707, 4968417.987529285252094 ], [ 469813.674479256093036, 4968418.352907439693809 ], [ 469816.622834312729537, 4968420.387529285624623 ], [ 469817.565429937269073, 4968420.495987155474722 ], [ 469818.422834312717896, 4968421.587529285810888 ], [ 469820.221885687846225, 4968421.287529284134507 ], [ 469821.300754168070853, 4968420.292702676728368 ], [ 469822.322834312915802, 4968420.987529285252094 ], [ 469824.121885687636677, 4968420.987529284320772 ], [ 469824.721659420465585, 4968420.387752927839756 ], [ 469824.872061595728155, 4968419.307605222798884 ], [ 469827.421659420419019, 4968417.087752928957343 ], [ 469827.059187335835304, 4968416.04249744489789 ], [ 469828.0216569469776, 4968414.387803261168301 ], [ 469827.721656105830334, 4968411.388639620505273 ], [ 469826.821894114022143, 4968409.888931130059063 ], [ 469826.020153789781034, 4968409.934260564856231 ], [ 469825.387037438631523, 4968409.340339252725244 ], [ 469825.321658543893136, 4968406.888689232990146 ], [ 469824.121894114010502, 4968405.688931129872799 ], [ 469823.044890343677253, 4968405.538690738379955 ], [ 469822.021894114091992, 4968404.188931129872799 ], [ 469817.521942605671939, 4968402.688933512195945 ], [ 469815.400784482364543, 4968402.937944428063929 ], [ 469813.92189411399886, 4968401.488931129686534 ], [ 469811.393346312630456, 4968400.777082676999271 ], [ 469810.021894113917369, 4968399.388931130059063 ], [ 469806.27949040097883, 4968399.385045065544546 ], [ 469805.521894114324823, 4968398.78893112950027 ], [ 469804.337093512993306, 4968398.78823 ], [ 469803.366667951748241, 4968400.017368782311678 ], [ 469802.222825886099599, 4968399.688931128941476 ], [ 469798.923061456123833, 4968402.388689232990146 ], [ 469798.536995683738496, 4968403.596694119274616 ], [ 469797.123060579586308, 4968405.087752928957343 ] ] ] } }
]
}
