{
"type": "FeatureCollection",
"name": "practice_basemap",
"crs": { "type": "name", "properties": { "name": "urn:ogc:def:crs:OGC:1.3:CRS84" } },
"features": [
{ "type": "Feature", "properties": { "kind": "tree", "label": "" }, "geometry": { "type": "Polygon", "coordinates": [ [ [ -93.382009340711264, 44.868866651635329 ], [ -93.382043298573691, 44.868834151286443 ], [ -93.382073039962521, 44.868833423761309 ], [ -93.382088600319108, 44.868821521950359 ], [ -93.382042840971692, 44.868763921154532 ], [ -93.382054119770444, 44.868747694604089 ], [ -93.382096031443965, 44.868771853967523 ], [ -93.382126751941982, 44.86882306334244 ], [ -93.38211875558936, 44.868846950779982 ], [ -93.382127038154735, 44.868866257883589 ], [ -93.382009340711264, 44.868866651635329 ] ] ] } },
{ "type": "Feature", "properties": { "kind": "tree", "label": "" }, "geometry": { "type": "Polygon", "coordinates": [ [ [ -93.382384854484286, 44.868800579332877 ], [ -93.382365816972538, 44.868789845058139 ], [ -93.382289185985897, 44.868687478902501 ], [ -93.382285316843763, 44.868676699355269 ], [ -93.382296649176013, 44.868668564425043 ], [ -93.382315656578029, 44.868673901565202 ], [ -93.38234619273112, 44.868698101064957 ], [ -93.382366399930575, 44.868748893180332 ], [ -93.382396133257799, 44.868784353961004 ], [ -93.382384854484286, 44.868800579332877 ] ] ] } },
{ "type": "Feature", "properties": { "kind": "tree", "label": "" }, "geometry": { "type": "Polygon", "coordinates": [ [ [ -93.382387328400597, 44.868600724193215 ], [ -93.382319170305152, 44.868630658853242 ], [ -93.382288821411407, 44.868633461148804 ], [ -93.382273566406596, 44.868622714576219 ], [ -93.382288661196696, 44.868609176569599 ], [ -93.382379551310535, 44.868571063898038 ], [ -93.382390929994202, 44.868571025738056 ], [ -93.382405966408655, 44.868584650001779 ], [ -93.382387328400597, 44.868600724193215 ] ] ] } },
{ "type": "Feature", "properties": { "kind": "tree", "label": "" }, "geometry": { "type": "Polygon", "coordinates": [ [ [ -93.382492214409766, 44.868427542088881 ], [ -93.382462134638899, 44.868424931588173 ], [ -93.382431601429232, 44.868403218550569 ], [ -93.38245043795493, 44.86837908102882 ], [ -93.382483958816692, 44.868375640099515 ], [ -93.38250759699865, 44.868362675202583 ], [ -93.382537759830669, 44.868378783666202 ], [ -93.382541700453174, 44.868400364288249 ], [ -93.382492214409766, 44.868427542088881 ] ] ] } },
{ "type": "Feature", "properties": { "kind": "tree", "label": "" }, "geometry": { "type": "Polygon", "coordinates": [ [ [ -93.381911200321213, 44.868386265635138 ], [ -93.381858264860313, 44.868381091034614 ], [ -93.381826950696322, 44.868392732685351 ], [ -93.381846972278623, 44.868437814165652 ], [ -93.381847150279526, 44.868464804564169 ], [ -93.381835936089431, 44.868491847278655 ], [ -93.381801960950483, 44.868521662959772 ], [ -93.381786739785525, 44.868513616874644 ], [ -93.38179524815969, 44.868486041830678 ], [ -93.381789022760415, 44.868477326929082 ], [ -93.381702034990639, 44.868450246950751 ], [ -93.381681287162692, 44.86845878256014 ], [ -93.381676791498805, 44.868469539556386 ], [ -93.381697031161679, 44.868487912126298 ], [ -93.381725814247304, 44.868492231673763 ], [ -93.381748680483781, 44.868505653480845 ], [ -93.381737419465694, 44.868524579353227 ], [ -93.38170705269799, 44.868524680789733 ], [ -93.381664992677031, 44.868500575145831 ], [ -93.381608243507969, 44.868514208437453 ], [ -93.381577710879029, 44.868490010890604 ], [ -93.381592618655645, 44.868457742938027 ], [ -93.381569758801092, 44.868436034772493 ], [ -93.381621551140654, 44.868420831864569 ], [ -93.381649109523181, 44.868376359913547 ], [ -93.381755427499129, 44.868376005158147 ], [ -93.381782862383119, 44.868387494883684 ], [ -93.381799734548295, 44.868379124193957 ], [ -93.381778073531706, 44.868351608614674 ], [ -93.381780392121115, 44.868320718646558 ], [ -93.381764464328569, 44.868312133288484 ], [ -93.381739896147394, 44.868324723696887 ], [ -93.381724675043131, 44.868316677603005 ], [ -93.381747328864066, 44.868297713603269 ], [ -93.38178905245428, 44.868292172905036 ], [ -93.381838499127724, 44.868315512233728 ], [ -93.381880406754689, 44.868324274573602 ], [ -93.381929984029313, 44.868356512439782 ], [ -93.381933888028712, 44.868372691569625 ], [ -93.381911200321213, 44.868386265635138 ] ] ] } },
{ "type": "Feature", "properties": { "kind": "tree", "label": "" }, "geometry": { "type": "Polygon", "coordinates": [ [ [ -93.384979830252689, 44.868402969325224 ], [ -93.384949472927033, 44.868403071390041 ], [ -93.384934199555047, 44.868389625802941 ], [ -93.384918739179525, 44.868349168308278 ], [ -93.384914725582192, 44.868316784269751 ], [ -93.384924766164744, 44.868305500517906 ], [ -93.384910748083527, 44.868289789995046 ], [ -93.384967434992831, 44.868249095501966 ], [ -93.384990359508123, 44.868273308965072 ], [ -93.384971504568838, 44.868292270874655 ], [ -93.384947092220784, 44.868295960401376 ], [ -93.384941097776633, 44.868306724498048 ], [ -93.385006216807284, 44.868373189671914 ], [ -93.385010121668927, 44.868389368693606 ], [ -93.384979830252689, 44.868402969325224 ] ] ] } },
{ "type": "Feature", "properties": { "kind": "tree", "label": "" }, "geometry": { "type": "Polygon", "coordinates": [ [ [ -93.382461414339517, 44.868319613980034 ], [ -93.38241230239926, 44.868357582924361 ], [ -93.38237434280947, 44.868357709556314 ], [ -93.382362903312099, 44.86834965088606 ], [ -93.382358474369568, 44.868289612488283 ], [ -93.382343361168864, 44.868266007763928 ], [ -93.382362254849852, 44.868255146850998 ], [ -93.382421050638641, 44.868291050283467 ], [ -93.382461324997578, 44.86830612237825 ], [ -93.382461414339517, 44.868319613980034 ] ] ] } },
{ "type": "Feature", "properties": { "kind": "tree", "label": "" }, "geometry": { "type": "Polygon", "coordinates": [ [ [ -93.382172440426743, 44.868266568201626 ], [ -93.38213079068845, 44.868285607724175 ], [ -93.382010007908605, 44.868275283089922 ], [ -93.382001798230291, 44.868304948430378 ], [ -93.381967771364614, 44.868326662355869 ], [ -93.381914566193487, 44.868318738909437 ], [ -93.381842168355277, 44.868281176501092 ], [ -93.381845858144956, 44.868264972015957 ], [ -93.381872326227239, 44.868248684247519 ], [ -93.381952783008259, 44.868250769911938 ], [ -93.381966341799526, 44.868239798376855 ], [ -93.3819783987405, 44.868207815338877 ], [ -93.382008673649423, 44.868191514481197 ], [ -93.38209984757853, 44.868199311713312 ], [ -93.382164512107593, 44.868215299127534 ], [ -93.382183582409795, 44.868228733608532 ], [ -93.382183312120389, 44.868245225829057 ], [ -93.382172440426743, 44.868266568201626 ] ] ] } },
{ "type": "Feature", "properties": { "kind": "tree", "label": "" }, "geometry": { "type": "Polygon", "coordinates": [ [ [ -93.38172410980485, 44.868235660282977 ], [ -93.381684774316483, 44.868255892417253 ], [ -93.381678824218668, 44.868279023066705 ], [ -93.381648646304654, 44.868308825299451 ], [ -93.381614518230876, 44.868314340092425 ], [ -93.381587854581397, 44.868300930997201 ], [ -93.381587783280352, 44.868290139974704 ], [ -93.381632278846098, 44.868259819672254 ], [ -93.381621462043697, 44.86821440823342 ], [ -93.381636491706956, 44.868190053524238 ], [ -93.38166672330847, 44.868168351746263 ], [ -93.381689476189891, 44.868165575652519 ], [ -93.381719908751052, 44.868173575801073 ], [ -93.381738978936468, 44.868187010356806 ], [ -93.381738708519734, 44.868203502577188 ], [ -93.38172410980485, 44.868235660282977 ] ] ] } },
{ "type": "Feature", "properties": { "kind": "tree", "label": "" }, "geometry": { "type": "Polygon", "coordinates": [ [ [ -93.385919866815769, 44.868135138555232 ], [ -93.385900959680257, 44.868145999998141 ], [ -93.385847769892578, 44.868140778430593 ], [ -93.385824884975946, 44.868124658100285 ], [ -93.385828573548025, 44.868108452306991 ], [ -93.385870176611178, 44.868084010557354 ], [ -93.385885352823607, 44.868083959216776 ], [ -93.385919704484181, 44.868110844640867 ], [ -93.385919866815769, 44.868135138555232 ] ] ] } },
{ "type": "Feature", "properties": { "kind": "tree", "label": "" }, "geometry": { "type": "Polygon", "coordinates": [ [ [ -93.382574411927195, 44.86817880220768 ], [ -93.382559299583505, 44.868189650912093 ], [ -93.382517491936568, 44.868195992780358 ], [ -93.382403904693234, 44.868236081703095 ], [ -93.382358383616861, 44.868241635456229 ], [ -93.382301301573946, 44.868222927021201 ], [ -93.382305009107696, 44.868209423102016 ], [ -93.3823428179535, 44.868184995276309 ], [ -93.382374273602963, 44.868183741297422 ], [ -93.382458104215274, 44.868140492454579 ], [ -93.382470705781671, 44.868130084761496 ], [ -93.382475239541805, 44.868108929033795 ], [ -93.382513047506933, 44.868084501547365 ], [ -93.38252826859987, 44.868092547582705 ], [ -93.382533438228137, 44.868107207458117 ], [ -93.382566441170084, 44.868122126761428 ], [ -93.382577599515642, 44.868143981979628 ], [ -93.382574411927195, 44.86817880220768 ] ] ] } },
{ "type": "Feature", "properties": { "kind": "tree", "label": "" }, "geometry": { "type": "Polygon", "coordinates": [ [ [ -93.383553657661935, 44.868094493464874 ], [ -93.383527024947, 44.868083784900847 ], [ -93.383519197560005, 44.868048713279393 ], [ -93.383556987027305, 44.86802158614632 ], [ -93.383572143495741, 44.868018834601699 ], [ -93.383591214058626, 44.868032268847216 ], [ -93.383595154976092, 44.868053850615446 ], [ -93.383553657661935, 44.868094493464874 ] ] ] } },
{ "type": "Feature", "properties": { "kind": "tree", "label": "" }, "geometry": { "type": "Polygon", "coordinates": [ [ [ -93.385783016524499, 44.868113990845139 ], [ -93.38576022940579, 44.868111367656418 ], [ -93.385731288720393, 44.868079963842781 ], [ -93.385672494764833, 44.868052254355504 ], [ -93.385679873575953, 44.868019833052237 ], [ -93.385694984865879, 44.868008984360941 ], [ -93.385721249454576, 44.868008885101432 ], [ -93.385752004164772, 44.868019593820776 ], [ -93.38579778507534, 44.868051842477307 ], [ -93.385805650676488, 44.868092315393731 ], [ -93.385783016524499, 44.868113990845139 ] ] ] } },
{ "type": "Feature", "properties": { "kind": "tree", "label": "" }, "geometry": { "type": "Polygon", "coordinates": [ [ [ -93.382195580926478, 44.868127584470336 ], [ -93.382171695638135, 44.868153139675606 ], [ -93.382156842723333, 44.868155900148857 ], [ -93.382124595511186, 44.868137267810873 ], [ -93.382091856065415, 44.868137202989089 ], [ -93.382066334239568, 44.868121002446358 ], [ -93.38204243536839, 44.868131966564683 ], [ -93.382019647904841, 44.868129342151775 ], [ -93.381987471930572, 44.868104158754328 ], [ -93.381962523429181, 44.86810522745828 ], [ -93.381951052831241, 44.86809469460129 ], [ -93.381986488933521, 44.868071623032698 ], [ -93.381996351414131, 44.86805111775621 ], [ -93.382039861065294, 44.868030393970599 ], [ -93.382034005633884, 44.868002380274724 ], [ -93.382056677023527, 44.86798610549377 ], [ -93.382090536758994, 44.867985981660418 ], [ -93.382106047441383, 44.867988640961016 ], [ -93.382126617925223, 44.868010002722833 ], [ -93.382159320677516, 44.86800466654929 ], [ -93.38218289972103, 44.868014222997537 ], [ -93.382227747950608, 44.868015239594001 ], [ -93.382239205644908, 44.868025988123627 ], [ -93.38220546223495, 44.868056458679298 ], [ -93.382215339563999, 44.86807355799337 ], [ -93.382247265592312, 44.86809618909809 ], [ -93.382195580926478, 44.868127584470336 ] ] ] } },
{ "type": "Feature", "properties": { "kind": "tree", "label": "" }, "geometry": { "type": "Polygon", "coordinates": [ [ [ -93.381954673264644, 44.868070150338006 ], [ -93.381916803990592, 44.868086476142111 ], [ -93.381901637137531, 44.868086526596521 ], [ -93.38187098563877, 44.868063105526893 ], [ -93.381840731234874, 44.868065125064639 ], [ -93.381798841634904, 44.868046365643956 ], [ -93.381832680662356, 44.867994951643389 ], [ -93.381870669445973, 44.867979452459608 ], [ -93.381847620912637, 44.867957081424166 ], [ -93.381851171496606, 44.867930253871684 ], [ -93.381839566055532, 44.86788981873498 ], [ -93.381850911745815, 44.867881468691891 ], [ -93.381873689465223, 44.867894094669609 ], [ -93.381909925947923, 44.867899180968919 ], [ -93.381938273617934, 44.867883877198217 ], [ -93.381953494578241, 44.867891923310879 ], [ -93.381908253330366, 44.867939658295114 ], [ -93.381942619803993, 44.867970278254461 ], [ -93.381914351539692, 44.867987960864127 ], [ -93.38191313766805, 44.867997175690881 ], [ -93.38195431614011, 44.868016150024481 ], [ -93.381954673264644, 44.868070150338006 ] ] ] } },
{ "type": "Feature", "properties": { "kind": "tree", "label": "" }, "geometry": { "type": "Polygon", "coordinates": [ [ [ -93.383692654803497, 44.867867177292553 ], [ -93.383673746672912, 44.867878038772545 ], [ -93.383624372787253, 44.867875503994654 ], [ -93.38360150642562, 44.86786208258588 ], [ -93.383631575165836, 44.867816086928471 ], [ -93.383654379969698, 44.867821411090432 ], [ -93.383696361923924, 44.867853672076379 ], [ -93.383692654803497, 44.867867177292553 ] ] ] } },
{ "type": "Feature", "properties": { "kind": "tree", "label": "" }, "geometry": { "type": "Polygon", "coordinates": [ [ [ -93.385659185716364, 44.867768727099985 ], [ -93.385622178660512, 44.86776332990479 ], [ -93.385605986724585, 44.867771656852646 ], [ -93.385607504139458, 44.867788135994523 ], [ -93.38564814752597, 44.867822793790751 ], [ -93.385652070561918, 44.867841673371174 ], [ -93.385633179842685, 44.867855235413487 ], [ -93.385595184050857, 44.867849962426241 ], [ -93.385574758299398, 44.86782455658345 ], [ -93.385537921082886, 44.867804249813425 ], [ -93.385522514614394, 44.867771895319208 ], [ -93.385526203249512, 44.867755689534476 ], [ -93.385541315242463, 44.86774484046753 ], [ -93.385575880091736, 44.867755560693475 ], [ -93.385593238979084, 44.867748534893117 ], [ -93.385597715910734, 44.867735077368351 ], [ -93.385579101009341, 44.867717475175951 ], [ -93.38559041301049, 44.867704165099966 ], [ -93.385656611562581, 44.867736174725238 ], [ -93.385693019065528, 44.86771462118552 ], [ -93.385712038054436, 44.867722653970624 ], [ -93.385711714666769, 44.8677310444589 ], [ -93.385659185716364, 44.867768727099985 ] ] ] } },
{ "type": "Feature", "properties": { "kind": "tree", "label": "" }, "geometry": { "type": "Polygon", "coordinates": [ [ [ -93.385902117125497, 44.867749001935081 ], [ -93.385861216734043, 44.867720639546611 ], [ -93.385799296291708, 44.867706139139017 ], [ -93.385787856448431, 44.867698080812119 ], [ -93.385791563876111, 44.867684576385784 ], [ -93.385818035438476, 44.867670988718544 ], [ -93.385844670206367, 44.867679000078496 ], [ -93.385878274740421, 44.867713066560995 ], [ -93.385917016075908, 44.867708462966839 ], [ -93.385916955340818, 44.867746421810089 ], [ -93.385902117125497, 44.867749001935081 ] ] ] } },
{ "type": "Feature", "properties": { "kind": "tree", "label": "" }, "geometry": { "type": "Polygon", "coordinates": [ [ [ -93.381956370270373, 44.867751464135438 ], [ -93.381922107929029, 44.867735379827131 ], [ -93.381956464241753, 44.867708235133996 ], [ -93.381917810432597, 44.86765977744556 ], [ -93.38193664898445, 44.86763812381102 ], [ -93.381968138285174, 44.867635073997761 ], [ -93.381993454558085, 44.867616329283862 ], [ -93.382039248713937, 44.867651279467609 ], [ -93.382039014112095, 44.867673172851632 ], [ -93.381956370270373, 44.867751464135438 ] ] ] } },
{ "type": "Feature", "properties": { "kind": "tree", "label": "" }, "geometry": { "type": "Polygon", "coordinates": [ [ [ -93.382000790861809, 44.867578479472755 ], [ -93.381981883222338, 44.867589340292078 ], [ -93.381959112091891, 44.867589416514122 ], [ -93.381924896701676, 44.867584129600509 ], [ -93.381902030126469, 44.867570707471948 ], [ -93.381882882507838, 44.867546467361237 ], [ -93.381878942172122, 44.867524884226285 ], [ -93.381894036086919, 44.867511336722146 ], [ -93.381966103784691, 44.867500293207186 ], [ -93.382011814881352, 44.867521744865961 ], [ -93.382026869332094, 44.867538070274115 ], [ -93.382000790861809, 44.867578479472755 ] ] ] } },
{ "type": "Feature", "properties": { "kind": "tree", "label": "" }, "geometry": { "type": "Polygon", "coordinates": [ [ [ -93.38590419739063, 44.867495140883172 ], [ -93.385866443442637, 44.867535612572929 ], [ -93.385893310079737, 44.867570794427664 ], [ -93.385864765425836, 44.867591741141176 ], [ -93.385844393056118, 44.867638475721847 ], [ -93.385828978929297, 44.867649336009876 ], [ -93.3857646859081, 44.867641441157552 ], [ -93.385753227694224, 44.867630691792591 ], [ -93.385771037182167, 44.867587846447705 ], [ -93.385759118430201, 44.867581702010789 ], [ -93.385737741832088, 44.867587518876007 ], [ -93.385726230028098, 44.867568668246264 ], [ -93.385793390069452, 44.867464562645203 ], [ -93.385782327238971, 44.867438849289194 ], [ -93.385793658863307, 44.867430713992093 ], [ -93.385820243751994, 44.867433324823367 ], [ -93.385858350289553, 44.867457755774666 ], [ -93.3858999589837, 44.867424953385949 ], [ -93.385915121344226, 44.867424902102471 ], [ -93.385914978082454, 44.867460293717834 ], [ -93.38590419739063, 44.867495140883172 ] ] ] } },
{ "type": "Feature", "properties": { "kind": "tree", "label": "" }, "geometry": { "type": "Polygon", "coordinates": [ [ [ -93.385706599207253, 44.867476902742411 ], [ -93.385656076398618, 44.867513316375351 ], [ -93.385627374507777, 44.867555488505587 ], [ -93.385600907805511, 44.867571777063802 ], [ -93.385527677731318, 44.867573172999712 ], [ -93.385502312813131, 44.867611793869742 ], [ -93.385523189613792, 44.867632460339422 ], [ -93.38555288460249, 44.867636609516794 ], [ -93.385584796473864, 44.867621633290227 ], [ -93.385601102482099, 44.867598804025064 ], [ -93.385616276771557, 44.867598752789405 ], [ -93.385639181954801, 44.867617575382546 ], [ -93.385643104973425, 44.867636454964014 ], [ -93.385605316727222, 44.867663584016384 ], [ -93.385536098938331, 44.867669385301426 ], [ -93.385521860764257, 44.867677368973567 ], [ -93.385474418495505, 44.867646760706087 ], [ -93.385457102009795, 44.867645179875325 ], [ -93.385445594822656, 44.867629246210782 ], [ -93.385459217500312, 44.867596252821436 ], [ -93.385437571611334, 44.867581212615818 ], [ -93.385411098909827, 44.867580519758626 ], [ -93.38539584358081, 44.867569773627864 ], [ -93.385395735608256, 44.867553580171368 ], [ -93.385418387769363, 44.867534605423572 ], [ -93.385473488801694, 44.867510941927961 ], [ -93.385474906400148, 44.867466894142474 ], [ -93.385497579481907, 44.867453318918827 ], [ -93.385522179907468, 44.867473201612682 ], [ -93.385536877978652, 44.867473573841821 ], [ -93.385571616653522, 44.867451390316802 ], [ -93.385577169910718, 44.867426043596879 ], [ -93.385698661903362, 44.86742563334861 ], [ -93.385688784948996, 44.867443181068005 ], [ -93.385706473039477, 44.867458009984198 ], [ -93.385706599207253, 44.867476902742411 ] ] ] } },
{ "type": "Feature", "properties": { "kind": "cartpath", "label": "" }, "geometry": { "type": "Polygon", "coordinates": [ [ [ -93.381829870907765, 44.868783213453312 ], [ -93.382055370905746, 44.868629013473893 ], [ -93.382056608850149, 44.868628253772314 ], [ -93.382057954452279, 44.868627593096996 ], [ -93.3823473544238, 44.868501293117014 ], [ -93.382347370339929, 44.868501286180432 ], [ -93.382781170297051, 44.868312486210407 ], [ -93.382797029705486, 44.868330913789045 ], [ -93.38236323762203, 44.868519710354889 ], [ -93.382075245295198, 44.868645396028562 ], [ -93.381851436474946, 44.868798439593789 ], [ -93.381813555047515, 44.868829630810062 ], [ -93.381799446956336, 44.8688247203497 ], [ -93.381787950395378, 44.868817659582341 ], [ -93.381828903440848, 44.868783939236742 ], [ -93.381829870907765, 44.868783213453312 ] ] ] } },
{ "type": "Feature", "properties": { "kind": "cartpath", "label": "" }, "geometry": { "type": "Polygon", "coordinates": [ [ [ -93.381842525833306, 44.868839264356254 ], [ -93.381832985444817, 44.868836393747323 ], [ -93.381827111209034, 44.868834349163393 ], [ -93.381825216775539, 44.86879133818546 ], [ -93.381855583224294, 44.868790661812533 ], [ -93.381857709070246, 44.868838926168458 ], [ -93.381842525833306, 44.868839264356254 ] ] ] } },
{ "type": "Feature", "properties": { "kind": "cartpath", "label": "" }, "geometry": { "type": "Polygon", "coordinates": [ [ [ -93.385727359613824, 44.868211209583656 ], [ -93.38567005934442, 44.868171216729422 ], [ -93.385563450794365, 44.868126038693909 ], [ -93.385413705090031, 44.868101194741094 ], [ -93.38528031411262, 44.868100607115366 ], [ -93.384948242602192, 44.868133754720596 ], [ -93.384791110095264, 44.868171922553195 ], [ -93.384789784749771, 44.86817219734035 ], [ -93.384788429796643, 44.868172385426512 ], [ -93.384787056426873, 44.868172485258185 ], [ -93.384785675983579, 44.868172496010843 ], [ -93.384691975966092, 44.868170196010453 ], [ -93.384690553175062, 44.868170113357039 ], [ -93.384689147577106, 44.868169936090347 ], [ -93.384687771585547, 44.868169665775888 ], [ -93.384686437352201, 44.868169304800915 ], [ -93.384685156660183, 44.868168856353286 ], [ -93.384589156649184, 44.868131156347239 ], [ -93.384587957475318, 44.868130632457579 ], [ -93.384586831629605, 44.868130031892633 ], [ -93.384585788776192, 44.868129359807632 ], [ -93.384584837866797, 44.868128621971643 ], [ -93.384583987063948, 44.868127824718208 ], [ -93.384583243670818, 44.868126974890828 ], [ -93.384582614068648, 44.868126079784368 ], [ -93.384582103661828, 44.86812514708231 ], [ -93.384558053444579, 44.868074352198569 ], [ -93.38451490625917, 44.867989056563403 ], [ -93.384514455142735, 44.867987997258311 ], [ -93.384474155170381, 44.867872297253072 ], [ -93.384473810522437, 44.867870943307786 ], [ -93.384462910539668, 44.867804043306315 ], [ -93.384462809682859, 44.8678028373809 ], [ -93.384462209715267, 44.867679537380731 ], [ -93.384462286902348, 44.867678411753708 ], [ -93.384462528575895, 44.867677297970857 ], [ -93.384462932105578, 44.867676208154229 ], [ -93.384463493099531, 44.867675154165099 ], [ -93.384502297080246, 44.867612356908808 ], [ -93.384512889598327, 44.867583106030352 ], [ -93.384542310403049, 44.867588493967759 ], [ -93.384531410410219, 44.867618593969112 ], [ -93.384531055708479, 44.867619431475063 ], [ -93.384530606890138, 44.867620245828512 ], [ -93.384492601420391, 44.867681750889936 ], [ -93.384493187373053, 44.867802157645997 ], [ -93.384503877903427, 44.86786777189716 ], [ -93.384543757503721, 44.86798226485908 ], [ -93.384586693757342, 44.868067143429386 ], [ -93.384586796325237, 44.868067352918914 ], [ -93.38460901216736, 44.868114273493802 ], [ -93.384696659227714, 44.86814869322194 ], [ -93.384783932830928, 44.868150835476634 ], [ -93.384939789881798, 44.868112977453379 ], [ -93.384941173321408, 44.868112692717489 ], [ -93.384942588462351, 44.868112502431721 ], [ -93.385277188401659, 44.868079102438045 ], [ -93.385279394112175, 44.868078997767277 ], [ -93.385415594086709, 44.868079597767277 ], [ -93.385417283762663, 44.868079672295714 ], [ -93.38541895128381, 44.868079880065245 ], [ -93.385572651257291, 44.868105380060747 ], [ -93.385574150204789, 44.868105687235548 ], [ -93.385575596948996, 44.868106102110936 ], [ -93.385576976233054, 44.868106620311757 ], [ -93.385687176221523, 44.868153320304351 ], [ -93.385688674241607, 44.868154044533988 ], [ -93.385690040383707, 44.868154890420755 ], [ -93.385748199331928, 44.868195482582905 ], [ -93.385785629955009, 44.868217663696868 ], [ -93.385775905381578, 44.868225962454744 ], [ -93.38576481061682, 44.868233449248429 ], [ -93.385728275422082, 44.868211798753855 ], [ -93.385727359613824, 44.868211209583656 ] ] ] } },
{ "type": "Feature", "properties": { "kind": "cartpath", "label": "" }, "geometry": { "type": "Polygon", "coordinates": [ [ [ -93.384627088472399, 44.867458956651632 ], [ -93.384643280153441, 44.867457963420648 ], [ -93.384657889843524, 44.867460921515331 ], [ -93.384651909693588, 44.867475858095418 ], [ -93.384651369973, 44.86747697165444 ], [ -93.384650662978203, 44.867478036806645 ], [ -93.384649797114477, 44.867479040888718 ], [ -93.384540097127413, 44.867591940900567 ], [ -93.384515102875255, 44.867579659098062 ], [ -93.38462337711168, 44.867468226480135 ], [ -93.384627088472399, 44.867458956651632 ] ] ] } },
{ "type": "Feature", "properties": { "kind": "collar", "label": "Chipping 1" }, "geometry": { "type": "Polygon", "coordinates": [ [ [ -93.385482216199236, 44.867979742403321 ], [ -93.385481632780838, 44.867980527269111 ], [ -93.385480943487238, 44.867981267451846 ], [ -93.385469558731103, 44.867992272588118 ], [ -93.38546877487363, 44.867992957246919 ], [ -93.385467900474922, 44.867993584008431 ], [ -93.38546694394573, 44.867994146843927 ], [ -93.385465914486815, 44.867994640339518 ], [ -93.385464822000429, 44.867995059748353 ], [ -93.385463676995101, 44.867995401036154 ], [ -93.3854624904845, 44.867995660920123 ], [ -93.385416991577685, 44.868003913265994 ], [ -93.385415657166433, 44.868004101642562 ], [ -93.385414302033837, 44.86800418709425 ], [ -93.385412941831788, 44.868004168634059 ], [ -93.385411592270785, 44.868004046475235 ], [ -93.385350986213226, 44.867996187415748 ], [ -93.385349953983749, 44.867996021587111 ], [ -93.385348944838285, 44.867995795026317 ], [ -93.38534796582934, 44.867995509316714 ], [ -93.385290673992969, 44.867976763192338 ], [ -93.38528959162015, 44.867976363021299 ], [ -93.385288568439705, 44.867975890617934 ], [ -93.385246653197385, 44.867954428159912 ], [ -93.385245707968281, 44.867953893683783 ], [ -93.385244838658267, 44.867953297587633 ], [ -93.385244053178781, 44.867952645296434 ], [ -93.385205847435842, 44.867917669991179 ], [ -93.385205176352883, 44.86791699360888 ], [ -93.385204595477248, 44.867916276248422 ], [ -93.385204109720803, 44.867915523975796 ], [ -93.385188683547682, 44.867888411519587 ], [ -93.385188298092942, 44.867887633232264 ], [ -93.38518801447006, 44.867886833115357 ], [ -93.385180290159568, 44.867859885884052 ], [ -93.385180094700857, 44.867858960494686 ], [ -93.385180035385218, 44.867858025675709 ], [ -93.38518011285359, 44.867857091528599 ], [ -93.385185465056736, 44.867822913348398 ], [ -93.385191604478948, 44.867804495087839 ], [ -93.385189704518623, 44.867810228938183 ], [ -93.385199059601845, 44.867817436753157 ], [ -93.385192693768261, 44.867858087851062 ], [ -93.385200418084295, 44.867885035081507 ], [ -93.385215844261992, 44.867912147536131 ], [ -93.385254050007276, 44.867947122838046 ], [ -93.385295965246996, 44.867968585293362 ], [ -93.385353257076943, 44.867987331415137 ], [ -93.385413863125493, 44.867995190473472 ], [ -93.385459362025912, 44.867986938128851 ], [ -93.385470746782943, 44.867975932993566 ], [ -93.385478118809004, 44.867954475386703 ], [ -93.38547795861129, 44.86792764567015 ], [ -93.385466269721505, 44.867884309256219 ], [ -93.385431739280008, 44.867814430188318 ], [ -93.385396934396894, 44.867765577603201 ], [ -93.385358966755163, 44.867738846787098 ], [ -93.385328265878158, 44.867730854800755 ], [ -93.385279204337763, 44.86773371412189 ], [ -93.385248902770215, 44.867744618951576 ], [ -93.385220740086098, 44.867768991117927 ], [ -93.385203274430168, 44.867766373937307 ], [ -93.385194685784029, 44.867769505083686 ], [ -93.385194697795455, 44.867769520499557 ], [ -93.385184105367088, 44.867764574037302 ], [ -93.385184210495453, 44.867764451005272 ], [ -93.385184973897651, 44.867763731242505 ], [ -93.385185834708011, 44.867763069390165 ], [ -93.385186784292785, 44.867762472086483 ], [ -93.385187813127828, 44.867761945322258 ], [ -93.385188910894144, 44.867761494380872 ], [ -93.385197499539416, 44.867758363234948 ], [ -93.385198621677887, 44.867758002028872 ], [ -93.385199787869084, 44.867757720088917 ], [ -93.3852009870714, 44.867757520084474 ], [ -93.385202207930647, 44.867757403909238 ], [ -93.385203438887629, 44.867757372663128 ], [ -93.385204668287514, 44.867757426642051 ], [ -93.385205884490205, 44.867757565334877 ], [ -93.385215835536727, 44.867759056472245 ], [ -93.38523912256943, 44.867738903726689 ], [ -93.3852400062584, 44.867738215021475 ], [ -93.385240985374878, 44.867737595007362 ], [ -93.385242049416433, 44.867737050334853 ], [ -93.385243186969774, 44.867736586846334 ], [ -93.38527348853421, 44.867725682018168 ], [ -93.385274605478656, 44.867725327168472 ], [ -93.385275765373535, 44.86772505064765 ], [ -93.385276957386154, 44.867724855038205 ], [ -93.385278170383884, 44.867724742167006 ], [ -93.385327231916719, 44.867721882846368 ], [ -93.385328600012812, 44.867721855903447 ], [ -93.385329964203095, 44.86772193415193 ], [ -93.385331308541026, 44.86772211667715 ], [ -93.385332617312201, 44.867722401345496 ], [ -93.385363318185284, 44.867730393330675 ], [ -93.385364567000551, 44.867730773621879 ], [ -93.385365751317437, 44.867731246892276 ], [ -93.385366857496066, 44.867731807691186 ], [ -93.385367872796522, 44.867732449559824 ], [ -93.385405840438139, 44.867759180373014 ], [ -93.385406751445331, 44.867759894413432 ], [ -93.385407549842085, 44.867760673645208 ], [ -93.385408226470048, 44.867761509129835 ], [ -93.385443031360211, 44.867810361711527 ], [ -93.385443682037817, 44.867811445740763 ], [ -93.385478212491947, 44.867881324805019 ], [ -93.385478490771746, 44.867881962687413 ], [ -93.38547870178229, 44.867882613486181 ], [ -93.385490390681042, 44.867925949898819 ], [ -93.385490557955166, 44.867926774939484 ], [ -93.385490617197178, 44.867927607446141 ], [ -93.38549077740079, 44.867954437162659 ], [ -93.385490689950032, 44.867955532383995 ], [ -93.385490415820357, 44.867956611909158 ], [ -93.385483043798601, 44.867978069516774 ], [ -93.385482688068265, 44.867978920487957 ], [ -93.385482216199236, 44.867979742403321 ] ] ] } },
{ "type": "Feature", "properties": { "kind": "collar", "label": "Chipping 2" }, "geometry": { "type": "Polygon", "coordinates": [ [ [ -93.384962937687902, 44.867959101990252 ], [ -93.384962853624913, 44.867960003125859 ], [ -93.384962643016777, 44.867960893736793 ], [ -93.384962307983258, 44.86796176485921 ], [ -93.3849510741573, 44.867986103304851 ], [ -93.384950523988607, 44.8679870934089 ], [ -93.384949813299784, 44.867988030400717 ], [ -93.384930972751945, 44.868009697199312 ], [ -93.384930150842706, 44.868010532617909 ], [ -93.384929201362581, 44.868011296584484 ], [ -93.384906533455933, 44.868027576374772 ], [ -93.384905707865798, 44.868028118860998 ], [ -93.384904817857915, 44.86802860712605 ], [ -93.384903870450074, 44.868029037319936 ], [ -93.38487736189623, 44.868039927343929 ], [ -93.384876298853968, 44.868040317625749 ], [ -93.384875188749362, 44.868040634799655 ], [ -93.384874041497682, 44.868040876032723 ], [ -93.384779212166066, 44.868057394529508 ], [ -93.384777750664625, 44.868057585259571 ], [ -93.384776267803574, 44.868057652888311 ], [ -93.384731157727629, 44.868057823552419 ], [ -93.384729831251846, 44.868057779036825 ], [ -93.38472851863267, 44.868057635946357 ], [ -93.384727234315307, 44.868057395855729 ], [ -93.384725992433474, 44.868057061407129 ], [ -93.384724806653935, 44.868056636281082 ], [ -93.384678674282341, 44.868037876995736 ], [ -93.384677637763531, 44.868037406583426 ], [ -93.384676670313823, 44.868036866875919 ], [ -93.38467578106146, 44.868036262965532 ], [ -93.384674978396816, 44.868035600550343 ], [ -93.384674269893296, 44.868034885880526 ], [ -93.384673662235897, 44.868034125699168 ], [ -93.384654499858968, 44.868007186495944 ], [ -93.384653945069388, 44.868006288075314 ], [ -93.384653531078911, 44.868005352051725 ], [ -93.384645854521352, 44.867983990537432 ], [ -93.384645563576171, 44.867982908848425 ], [ -93.384645460546707, 44.867981809989516 ], [ -93.384645192109531, 44.867946261691806 ], [ -93.384645293319636, 44.867945076266864 ], [ -93.38467089530721, 44.867802094257357 ], [ -93.384671143230364, 44.86780113117505 ], [ -93.384671536765396, 44.867800192936365 ], [ -93.384672071257015, 44.867799290640036 ], [ -93.384672740382527, 44.867798434959681 ], [ -93.384699116543217, 44.867768644157778 ], [ -93.384699820216809, 44.867767928831839 ], [ -93.384700618014378, 44.867767265340028 ], [ -93.384701502433117, 44.867766659922069 ], [ -93.384702465155641, 44.867766118271561 ], [ -93.384703497128129, 44.867765645482393 ], [ -93.384730003523131, 44.867754757385462 ], [ -93.384731211346661, 44.867754320793182 ], [ -93.384732477869193, 44.867753978503927 ], [ -93.384733788581272, 44.867753734438992 ], [ -93.38473512846717, 44.867753591394447 ], [ -93.384776865267511, 44.867750749171094 ], [ -93.384778122600011, 44.867750708250021 ], [ -93.384779379431762, 44.867750756324959 ], [ -93.384780623337377, 44.867750892920604 ], [ -93.384781842019265, 44.867751116686549 ], [ -93.384783023429165, 44.867751425410596 ], [ -93.384784155887303, 44.867751816040574 ], [ -93.384785228197913, 44.867752284714612 ], [ -93.38483474702852, 44.867776419055666 ], [ -93.384835809060377, 44.867776997612523 ], [ -93.384836779299192, 44.867777652645508 ], [ -93.384837646907968, 44.867778376838331 ], [ -93.384838402196053, 44.867779162102188 ], [ -93.384839036727328, 44.86777999966619 ], [ -93.384865882959687, 44.867820415900724 ], [ -93.384866443791822, 44.867821409210123 ], [ -93.384866834867466, 44.867822442836321 ], [ -93.384879091511181, 44.867864713462744 ], [ -93.384897066011703, 44.867887083030013 ], [ -93.384927214419008, 44.867903286110419 ], [ -93.38492823195412, 44.867903895266387 ], [ -93.38492915399118, 44.867904576986071 ], [ -93.384952059421877, 44.867923398848959 ], [ -93.384952880262773, 44.867924150185061 ], [ -93.384953585007963, 44.86792495893382 ], [ -93.384954165784876, 44.86792581606089 ], [ -93.384954616105759, 44.867926711991458 ], [ -93.384954930940154, 44.867927636717262 ], [ -93.384962724076374, 44.867957304438711 ], [ -93.384962894359688, 44.867958199399737 ], [ -93.384962937687902, 44.867959101990252 ] ], [ [ -93.384919582052802, 44.86791046784829 ], [ -93.384887362885067, 44.867893151848307 ], [ -93.384867100675109, 44.867867935182538 ], [ -93.38485443701029, 44.867824260793441 ], [ -93.384827590784141, 44.867783844556236 ], [ -93.384778071950109, 44.867759710212106 ], [ -93.384736335143373, 44.867762552435913 ], [ -93.384709828745983, 44.8677734405343 ], [ -93.384683452588675, 44.867803231338641 ], [ -93.384657850631726, 44.86794621335082 ], [ -93.38465811907669, 44.867981761648473 ], [ -93.384665795638483, 44.868003123161934 ], [ -93.384684958019307, 44.868030062363253 ], [ -93.38473109038668, 44.868048821646092 ], [ -93.38477620045559, 44.868048650982033 ], [ -93.384871029773748, 44.868032132487762 ], [ -93.384897538325234, 44.868021242465232 ], [ -93.384920206231939, 44.868004962676714 ], [ -93.384939046782307, 44.867983295879867 ], [ -93.384950280612813, 44.86795895743537 ], [ -93.38494248748276, 44.867929289713068 ], [ -93.384919582052802, 44.86791046784829 ] ] ] } },
{ "type": "Feature", "properties": { "kind": "collar", "label": "Putting green" }, "geometry": { "type": "Polygon", "coordinates": [ [ [ -93.384363182730752, 44.868030057105571 ], [ -93.384362935295727, 44.868030845428315 ], [ -93.384362589490934, 44.868031614805396 ], [ -93.384351335835902, 44.86805325325512 ], [ -93.384350756848164, 44.868054196823479 ], [ -93.384350030153485, 44.868055087211552 ], [ -93.38432741427728, 44.868079470160957 ], [ -93.384326780817503, 44.868080093454978 ], [ -93.38432607486024, 44.868080676025905 ], [ -93.384325301557695, 44.868081213622006 ], [ -93.384291271353419, 44.868102928988904 ], [ -93.384290370501233, 44.86810345274268 ], [ -93.384289405825896, 44.868103915459002 ], [ -93.384288385478413, 44.868104313228173 ], [ -93.384287318080212, 44.868104642689218 ], [ -93.384256995694429, 44.868112846008586 ], [ -93.384255917562541, 44.868113098948562 ], [ -93.384254811899126, 44.868113282180154 ], [ -93.384253687597322, 44.86811339422956 ], [ -93.384252553700165, 44.868113434195557 ], [ -93.38423358176442, 44.868113497151064 ], [ -93.384232391942504, 44.868113461262922 ], [ -93.384231212128242, 44.868113346021552 ], [ -93.384230052763485, 44.868113152446909 ], [ -93.384228924109081, 44.868112882252177 ], [ -93.384227836154082, 44.868112537828715 ], [ -93.384226798527337, 44.868112122224801 ], [ -93.384207513593978, 44.868103524115391 ], [ -93.384187275889502, 44.868102837254767 ], [ -93.384186120337631, 44.868102760155729 ], [ -93.384184979572581, 44.868102608117141 ], [ -93.384183863183992, 44.868102382417085 ], [ -93.3841827805565, 44.868102084952888 ], [ -93.384133675945989, 44.868086717901491 ], [ -93.384067453224546, 44.868079138281495 ], [ -93.384034517037378, 44.868082028207489 ], [ -93.38392972460376, 44.868105996450787 ], [ -93.383928475979801, 44.868106232777059 ], [ -93.383927199983745, 44.868106377357705 ], [ -93.383925909909593, 44.868106428686382 ], [ -93.383891745787551, 44.868106546109566 ], [ -93.383890646714519, 44.868106515905964 ], [ -93.383889555477111, 44.86810641796999 ], [ -93.383888480313658, 44.868106253041056 ], [ -93.383831449921018, 44.86809564149636 ], [ -93.383830286068573, 44.868095381737852 ], [ -93.38382916277763, 44.86809504352334 ], [ -93.383828090478744, 44.868094629993386 ], [ -93.38382707912902, 44.8680941449879 ], [ -93.383826138119545, 44.868093593010514 ], [ -93.383780212424099, 44.868063896930387 ], [ -93.383779285286678, 44.868063231564115 ], [ -93.383778460394595, 44.868062501287838 ], [ -93.383759509927373, 44.868043810101007 ], [ -93.383758905068532, 44.868043155215283 ], [ -93.383758382577852, 44.868042465407783 ], [ -93.383757946413454, 44.868041745904179 ], [ -93.383746411775192, 44.868020181916208 ], [ -93.383746056155914, 44.868019415276208 ], [ -93.383745798545874, 44.86801862906303 ], [ -93.383745641016759, 44.868017829599388 ], [ -93.383745584835381, 44.868017023314472 ], [ -93.38374533730962, 44.86797922822462 ], [ -93.383745392619034, 44.867978344666959 ], [ -93.383745569583823, 44.867977469233303 ], [ -93.383745866495815, 44.867976610373965 ], [ -93.383746280488992, 44.867975776379218 ], [ -93.383746807567192, 44.867974975299369 ], [ -93.383747442642715, 44.86797421486699 ], [ -93.383748179585368, 44.867973502422288 ], [ -93.38375510544347, 44.867967453485299 ], [ -93.383756648397281, 44.867956634425482 ], [ -93.383756820321693, 44.86795581067063 ], [ -93.383757098556401, 44.867955001738991 ], [ -93.383757480720249, 44.867954214553407 ], [ -93.383757963542635, 44.867953455850746 ], [ -93.383758542891499, 44.867952732124053 ], [ -93.383759213808744, 44.867952049567045 ], [ -93.383785629882851, 44.867927660638102 ], [ -93.383786444796755, 44.86792698088599 ], [ -93.383787350430836, 44.867926361913305 ], [ -93.383788337868069, 44.867925809814523 ], [ -93.383839565800372, 44.867899985352999 ], [ -93.383892881348956, 44.867864142989198 ], [ -93.383893904309929, 44.867863524930108 ], [ -93.383895013550386, 44.867862987376917 ], [ -93.383951813158731, 44.867838492346749 ], [ -93.383953033007586, 44.867838029103915 ], [ -93.383954316634131, 44.867837663250505 ], [ -93.383999811349497, 44.867826706584587 ], [ -93.384001000995141, 44.867826465457661 ], [ -93.38400221805567, 44.86782630805552 ], [ -93.384065011357109, 44.867820423804737 ], [ -93.384199959251035, 44.867780341747718 ], [ -93.384201279546019, 44.867780009309691 ], [ -93.384202643403626, 44.867779782632496 ], [ -93.384204034127194, 44.867779664491174 ], [ -93.384268557469326, 44.867776744914551 ], [ -93.384269820943786, 44.867776732683218 ], [ -93.384271079838314, 44.867776810089758 ], [ -93.384272321609174, 44.867776976362869 ], [ -93.38427353388326, 44.867777229845814 ], [ -93.384274704581387, 44.867777568012862 ], [ -93.384275822038589, 44.867777987494485 ], [ -93.384313899165136, 44.867794058321486 ], [ -93.384314879571647, 44.867794517102027 ], [ -93.384315796015983, 44.867795038481184 ], [ -93.384316640620625, 44.867795617977315 ], [ -93.384317406125561, 44.867796250609196 ], [ -93.38431808595071, 44.867796930938887 ], [ -93.384344861489225, 44.867826543841105 ], [ -93.384345451272608, 44.86782726805064 ], [ -93.384345943933397, 44.867828028080254 ], [ -93.384346335213579, 44.867828817361108 ], [ -93.384346621731382, 44.867829629071544 ], [ -93.384346801010466, 44.867830456196053 ], [ -93.384346871501307, 44.867831291585915 ], [ -93.384348759192605, 44.867931211139656 ], [ -93.384362771036422, 44.86797801729471 ], [ -93.38436297572612, 44.867978927897383 ], [ -93.38436304834083, 44.867979848613885 ], [ -93.384363375331219, 44.868028449111272 ], [ -93.384363329803932, 44.868029256183846 ], [ -93.384363182730752, 44.868030057105571 ] ], [ [ -93.384336118379068, 44.867932218472887 ], [ -93.384334213963797, 44.867831412515002 ], [ -93.384307438428436, 44.867801799610298 ], [ -93.384269361298564, 44.867785728781186 ], [ -93.384204837946456, 44.867788648358314 ], [ -93.384068335440162, 44.867829192164173 ], [ -93.384003871823481, 44.867835232937807 ], [ -93.383958377102189, 44.867846189605352 ], [ -93.383901577489098, 44.86787068463876 ], [ -93.383847613961933, 44.867906962621376 ], [ -93.383795658574272, 44.867933153801694 ], [ -93.383769242501927, 44.86795754273291 ], [ -93.383767316808928, 44.867971045547073 ], [ -93.383757995884935, 44.867979186299053 ], [ -93.383758243418981, 44.868016981388863 ], [ -93.383769778061009, 44.86803854537564 ], [ -93.383788728529808, 44.868057236560773 ], [ -93.383834654224287, 44.868086932637503 ], [ -93.383891684608912, 44.868097544180635 ], [ -93.38392584872561, 44.868097426757487 ], [ -93.384031779798278, 44.868073198083145 ], [ -93.384067688578369, 44.868070047332303 ], [ -93.384137289530244, 44.868078013612752 ], [ -93.38418787935808, 44.868093845455817 ], [ -93.384211428738482, 44.868094644713217 ], [ -93.384233522697158, 44.868104495215199 ], [ -93.384252494629933, 44.868104432259692 ], [ -93.384282817011979, 44.868096228941525 ], [ -93.384316847215501, 44.86807451357712 ], [ -93.384339463094264, 44.868050130629783 ], [ -93.384350716753161, 44.868028492181189 ], [ -93.384350389773402, 44.867979891683738 ], [ -93.384336118379068, 44.867932218472887 ] ] ] } },
{ "type": "Feature", "properties": { "kind": "collar", "label": "Range green" }, "geometry": { "type": "Polygon", "coordinates": [ [ [ -93.382347463907223, 44.868417847693891 ], [ -93.382348065641679, 44.868418602820576 ], [ -93.38234856231665, 44.868419395646924 ], [ -93.382348949315002, 44.868420218802733 ], [ -93.382349223039171, 44.868421064635889 ], [ -93.382349380944561, 44.868421925283428 ], [ -93.382349421563276, 44.868422792744752 ], [ -93.382349344517735, 44.868423658955827 ], [ -93.382349150524135, 44.868424515864284 ], [ -93.382348841385863, 44.868425355504222 ], [ -93.382348419976665, 44.868426170070272 ], [ -93.382347890214021, 44.868426951990187 ], [ -93.382337888275245, 44.868440058440584 ], [ -93.382341939246928, 44.868459144981202 ], [ -93.382342068161321, 44.868460082886095 ], [ -93.382342058490238, 44.868461025235561 ], [ -93.382341910339633, 44.868461961702515 ], [ -93.382341625333083, 44.868462882024318 ], [ -93.382341206593921, 44.86846377611532 ], [ -93.382340658711044, 44.868464634177272 ], [ -93.382339987688638, 44.868465446806781 ], [ -93.382317367959331, 44.868489821235983 ], [ -93.382316580178028, 44.868490580368444 ], [ -93.382315684996584, 44.868491276699025 ], [ -93.382314692247817, 44.868491902579102 ], [ -93.382313612836285, 44.868492451133932 ], [ -93.382241678566061, 44.868525099306197 ], [ -93.382240635471845, 44.868525524554919 ], [ -93.382239540348834, 44.868525877510734 ], [ -93.382238403076556, 44.868526154989482 ], [ -93.382211859230793, 44.868531644329501 ], [ -93.38221074680942, 44.868531836056313 ], [ -93.382209614582067, 44.868531955542771 ], [ -93.382208471805853, 44.86853200181195 ], [ -93.382207327824105, 44.868531974485535 ], [ -93.382187153725965, 44.868530841590321 ], [ -93.38216816145345, 44.868536382787795 ], [ -93.382157208120262, 44.868545322204184 ], [ -93.382156316645847, 44.868545979285194 ], [ -93.382155336159443, 44.868546568769759 ], [ -93.382154276747585, 44.868547084593665 ], [ -93.382153149308778, 44.868547521450459 ], [ -93.382151965441366, 44.868547874846072 ], [ -93.382150737324167, 44.868548141144998 ], [ -93.382133427416676, 44.868551221780514 ], [ -93.382098040533535, 44.868568608659857 ], [ -93.382096916018526, 44.868569101598979 ], [ -93.382095725388851, 44.868569508519009 ], [ -93.382094481610096, 44.868569824988747 ], [ -93.382093198226642, 44.868570047561924 ], [ -93.382086070213958, 44.868571006688441 ], [ -93.382077754177502, 44.868577927999588 ], [ -93.382076862934142, 44.868578597138495 ], [ -93.382075880151064, 44.868579197967165 ], [ -93.382074816129844, 44.868579724187661 ], [ -93.382073682023687, 44.868580170284105 ], [ -93.382072489720343, 44.86858053158047 ], [ -93.382071251717647, 44.86858080428965 ], [ -93.382069980992455, 44.868580985553024 ], [ -93.382068690864585, 44.868581073470651 ], [ -93.382067394857273, 44.8685810671209 ], [ -93.382066106555371, 44.86858096657037 ], [ -93.382043325282723, 44.868578343356027 ], [ -93.382042212124176, 44.868578178388951 ], [ -93.382041124272789, 44.86857794305444 ], [ -93.382040070505866, 44.868577639251278 ], [ -93.382039059325635, 44.868577269430716 ], [ -93.382038098890732, 44.868576836576587 ], [ -93.382030222050986, 44.868572923271856 ], [ -93.382024166610492, 44.868574972800921 ], [ -93.382022880425652, 44.86857534800447 ], [ -93.382021544140926, 44.86857562065093 ], [ -93.382020173872633, 44.868575787452038 ], [ -93.382018786146901, 44.868575846396062 ], [ -93.381996021249591, 44.868575922819673 ], [ -93.38199478035385, 44.868575883648937 ], [ -93.38199355083016, 44.868575758184441 ], [ -93.381992344516405, 44.868575547634165 ], [ -93.381991173027004, 44.868575254025323 ], [ -93.381990047641082, 44.868574880184759 ], [ -93.38198897919392, 44.868574429711813 ], [ -93.381987977972557, 44.868573906943702 ], [ -93.381987053616754, 44.868573316913618 ], [ -93.381979430688688, 44.868567948092156 ], [ -93.381978528485064, 44.868567241458095 ], [ -93.381977736559563, 44.868566470867819 ], [ -93.38197706381446, 44.868565644983811 ], [ -93.381976517812276, 44.868564773090036 ], [ -93.381976104690779, 44.868563864987735 ], [ -93.381973007502381, 44.868555580531336 ], [ -93.381945684561089, 44.868538768341274 ], [ -93.381944788467209, 44.868538159950049 ], [ -93.381943980295389, 44.868537492181098 ], [ -93.381943267786724, 44.868536771430612 ], [ -93.381942657765975, 44.86853600460234 ], [ -93.381942156076207, 44.868535199041318 ], [ -93.381941767522875, 44.868534362463642 ], [ -93.381941495827732, 44.868533502882478 ], [ -93.381941343593198, 44.86853262853132 ], [ -93.381941312277448, 44.868531747785148 ], [ -93.381941402180459, 44.868530869080189 ], [ -93.381941612441054, 44.86853000083314 ], [ -93.381943807894359, 44.868523002465899 ], [ -93.381935179055716, 44.868512096125777 ], [ -93.381934608134316, 44.868511280486494 ], [ -93.381934156073271, 44.868510427986216 ], [ -93.381933827503303, 44.868509547357569 ], [ -93.381933625790111, 44.86850864762129 ], [ -93.381933552999953, 44.868507737993887 ], [ -93.381933609878431, 44.868506827793119 ], [ -93.381937229810944, 44.868479822450965 ], [ -93.381937438169743, 44.868478842730447 ], [ -93.381937796681186, 44.868477885229296 ], [ -93.381938301001668, 44.868476961548211 ], [ -93.381938945021062, 44.868476082878168 ], [ -93.381950237359021, 44.868462549871232 ], [ -93.381950938522337, 44.868461798146143 ], [ -93.381951741959043, 44.868461100096809 ], [ -93.381952639601593, 44.868460462732514 ], [ -93.381953622436569, 44.868459892453195 ], [ -93.381954680595058, 44.868459394985166 ], [ -93.381955803451845, 44.868458975323634 ], [ -93.381956979732024, 44.868458637682508 ], [ -93.381958197624286, 44.868458385452136 ], [ -93.381959444899493, 44.86845822116522 ], [ -93.381960709033436, 44.868458146471397 ], [ -93.381965751408217, 44.868458028906666 ], [ -93.381967466723367, 44.868439355258872 ], [ -93.381967616989868, 44.868438441144484 ], [ -93.381967897718795, 44.86843754271802 ], [ -93.381968305975875, 44.868436669370148 ], [ -93.381968837493858, 44.868435830229437 ], [ -93.381969486717111, 44.86843503406687 ], [ -93.381970246859709, 44.868434289204217 ], [ -93.381971109976377, 44.868433603427071 ], [ -93.381986062003378, 44.868422880951087 ], [ -93.381987063778865, 44.868422235452321 ], [ -93.381988156639224, 44.868421669602718 ], [ -93.38198932812108, 44.868421189855397 ], [ -93.381990564864481, 44.868420801681609 ], [ -93.381991852765225, 44.868420509508177 ], [ -93.382002444615821, 44.868418542942727 ], [ -93.38201150478811, 44.868410147554087 ], [ -93.382012309656034, 44.86840947312664 ], [ -93.382013203717065, 44.868408858129271 ], [ -93.382014178338579, 44.868408308500122 ], [ -93.382015224110063, 44.868407829546172 ], [ -93.382016330934022, 44.868407425891952 ], [ -93.382017488123452, 44.868407101435004 ], [ -93.38207435615989, 44.868393411365204 ], [ -93.382075551676792, 44.86839316938039 ], [ -93.382076774803224, 44.868393011941549 ], [ -93.38207801374601, 44.868392940566629 ], [ -93.382079256559564, 44.868392955943861 ], [ -93.382100779703009, 44.868393975479435 ], [ -93.382115307159822, 44.868384383390733 ], [ -93.382116184757905, 44.868383854645749 ], [ -93.382117126223136, 44.868383384731516 ], [ -93.382118123782604, 44.868382977527681 ], [ -93.38211916920028, 44.868382636396205 ], [ -93.382120253845002, 44.868382364153547 ], [ -93.382149429681292, 44.868376085466672 ], [ -93.382164199965572, 44.868365554565806 ], [ -93.382165112340317, 44.868364964551255 ], [ -93.382166101117164, 44.868364440468596 ], [ -93.382167156912175, 44.868363987291637 ], [ -93.382168269705261, 44.868363609321278 ], [ -93.382169428935484, 44.86836331014463 ], [ -93.382170623601141, 44.868363092601051 ], [ -93.382171842364244, 44.868362958755121 ], [ -93.382173073658137, 44.868362909877106 ], [ -93.382214325586602, 44.868362703492004 ], [ -93.382223388610072, 44.868358682046427 ], [ -93.38222440320898, 44.868358276687388 ], [ -93.3822254658687, 44.868357939301724 ], [ -93.382226567608058, 44.868357672740906 ], [ -93.382227699115475, 44.86835747925781 ], [ -93.3822288508279, 44.868357360487693 ], [ -93.382230013011451, 44.868357317434324 ], [ -93.382244752899553, 44.86835725387116 ], [ -93.382246057866311, 44.868357296176619 ], [ -93.382247349753712, 44.868357433893941 ], [ -93.382248614804269, 44.868357665556573 ], [ -93.382249839546233, 44.868357988697504 ], [ -93.382251010937125, 44.868358399875554 ], [ -93.382252116502627, 44.86835889471201 ], [ -93.38225314446936, 44.868359467937289 ], [ -93.382254083890373, 44.868360113447025 ], [ -93.382261957978244, 44.868366112824802 ], [ -93.382270289054205, 44.868365353351123 ], [ -93.382271564071075, 44.868365283428297 ], [ -93.382272842502374, 44.868365305341044 ], [ -93.38227411130147, 44.868365418865721 ], [ -93.382275357519987, 44.868365622843818 ], [ -93.38227656844002, 44.868365915193678 ], [ -93.382277731703851, 44.868366292931796 ], [ -93.382278835440161, 44.868366752203308 ], [ -93.382279868385069, 44.868367288321217 ], [ -93.382321792532252, 44.868391447306088 ], [ -93.382322663542382, 44.868391998365986 ], [ -93.382323459568525, 44.868392604072568 ], [ -93.382324173859104, 44.868393259288453 ], [ -93.382324800355761, 44.868393958456323 ], [ -93.382325333744745, 44.868394695646124 ], [ -93.382325769502074, 44.86839546460525 ], [ -93.382330313543946, 44.868404687155113 ], [ -93.382345968559619, 44.86841647820264 ], [ -93.382346762707058, 44.868417137286585 ], [ -93.382347463907223, 44.868417847693891 ] ], [ [ -93.382313822798537, 44.868398441305715 ], [ -93.382271898649577, 44.868374282317959 ], [ -93.382257131302111, 44.868375628531631 ], [ -93.382244829662909, 44.868366255740177 ], [ -93.38223008977252, 44.868366319303348 ], [ -93.38221799182368, 44.868371687406281 ], [ -93.382173162711851, 44.868371911688897 ], [ -93.382156143867533, 44.86838404576644 ], [ -93.382123920434609, 44.868390980301612 ], [ -93.382105389434955, 44.868403215822227 ], [ -93.382078415201306, 44.86840193807317 ], [ -93.382021547157478, 44.868415628145009 ], [ -93.3820098435651, 44.868426472995829 ], [ -93.381995050643667, 44.868429219565122 ], [ -93.381980098616722, 44.868439942042279 ], [ -93.381978024006926, 44.868462527175971 ], [ -93.381970960619057, 44.868466914323463 ], [ -93.381961123848015, 44.868467143671438 ], [ -93.381949831511719, 44.868480676679425 ], [ -93.38194621158506, 44.868507682021956 ], [ -93.381957219373291, 44.868521595209067 ], [ -93.381953967565025, 44.868531960888575 ], [ -93.381984239435866, 44.86855058759388 ], [ -93.38198833856417, 44.86856155206479 ], [ -93.381995961492223, 44.868566920885655 ], [ -93.382018726385979, 44.868566844462073 ], [ -93.382031433219922, 44.868562543696868 ], [ -93.382045348691264, 44.868569457063636 ], [ -93.382068129960487, 44.868572080277602 ], [ -93.38207933973078, 44.868562750556386 ], [ -93.382090844715592, 44.868561202476322 ], [ -93.382128123444943, 44.868542886063764 ], [ -93.382147664050208, 44.868539408432341 ], [ -93.38216058520733, 44.868528863003796 ], [ -93.382185141245046, 44.868521698518826 ], [ -93.382208324357308, 44.868523000388343 ], [ -93.382234868199433, 44.868517511049163 ], [ -93.382306802464115, 44.868484862881154 ], [ -93.382329422195951, 44.868460488454019 ], [ -93.3823247378063, 44.868438417480313 ], [ -93.38233676416526, 44.86842265825274 ], [ -93.382319258316542, 44.868409473192401 ], [ -93.382313822798537, 44.868398441305715 ] ] ] } },
{ "type": "Feature", "properties": { "kind": "bunker", "label": "" }, "geometry": { "type": "Polygon", "coordinates": [ [ [ -93.3853358, 44.8680257 ], [ -93.3852929, 44.8680038 ], [ -93.3852482, 44.8680004 ], [ -93.3852273, 44.8679769 ], [ -93.3852088, 44.8679433 ], [ -93.3851886, 44.8679339 ], [ -93.3851503, 44.8679576 ], [ -93.3851359, 44.8679773 ], [ -93.3851483, 44.8679976 ], [ -93.3851788, 44.8680133 ], [ -93.3852183, 44.8680376 ], [ -93.3852624, 44.868048899999984 ], [ -93.3853267, 44.8680504 ], [ -93.3853429, 44.8680428 ], [ -93.3853358, 44.8680257 ] ] ] } },
{ "type": "Feature", "properties": { "kind": "bunker", "label": "" }, "geometry": { "type": "Polygon", "coordinates": [ [ [ -93.3851978, 44.8677742 ], [ -93.3851554, 44.8677544 ], [ -93.3851181, 44.8677524 ], [ -93.3850807, 44.8678156 ], [ -93.3850907, 44.8678426 ], [ -93.3851245, 44.867849 ], [ -93.385152100000013, 44.8678397 ], [ -93.3851817, 44.8678225 ], [ -93.3851978, 44.8677742 ] ] ] } },
{ "type": "Feature", "properties": { "kind": "green", "label": "Chipping 1" }, "geometry": { "type": "Polygon", "coordinates": [ [ [ -93.385470746782943, 44.867975932993566 ], [ -93.385459362025912, 44.867986938128851 ], [ -93.385413863125493, 44.867995190473472 ], [ -93.385353257076943, 44.867987331415137 ], [ -93.385295965246996, 44.867968585293362 ], [ -93.385254050007276, 44.867947122838046 ], [ -93.385215844261992, 44.867912147536131 ], [ -93.385200418084295, 44.867885035081507 ], [ -93.385192693768261, 44.867858087851062 ], [ -93.385199059601845, 44.867817436753157 ], [ -93.385189704518623, 44.867810228938183 ], [ -93.385200658606195, 44.867777170811358 ], [ -93.385194685784029, 44.867769505083686 ], [ -93.385203274430168, 44.867766373937307 ], [ -93.385220740086098, 44.867768991117927 ], [ -93.385248902770215, 44.867744618951576 ], [ -93.385279204337763, 44.86773371412189 ], [ -93.385328265878158, 44.867730854800755 ], [ -93.385358966755163, 44.867738846787098 ], [ -93.385396934396894, 44.867765577603201 ], [ -93.385431739280008, 44.867814430188318 ], [ -93.385466269721505, 44.867884309256219 ], [ -93.38547795861129, 44.86792764567015 ], [ -93.385478118809004, 44.867954475386703 ], [ -93.385470746782943, 44.867975932993566 ] ] ] } },
{ "type": "Feature", "properties": { "kind": "green", "label": "Chipping 2" }, "geometry": { "type": "Polygon", "coordinates": [ [ [ -93.384950280612813, 44.86795895743537 ], [ -93.384939046782307, 44.867983295879867 ], [ -93.384920206231939, 44.868004962676714 ], [ -93.384897538325234, 44.868021242465232 ], [ -93.384871029773748, 44.868032132487762 ], [ -93.38477620045559, 44.868048650982033 ], [ -93.38473109038668, 44.868048821646092 ], [ -93.384684958019307, 44.868030062363253 ], [ -93.384665795638483, 44.868003123161934 ], [ -93.38465811907669, 44.867981761648473 ], [ -93.384657850631726, 44.86794621335082 ], [ -93.384683452588675, 44.867803231338641 ], [ -93.384709828745983, 44.8677734405343 ], [ -93.384736335143373, 44.867762552435913 ], [ -93.384778071950109, 44.867759710212106 ], [ -93.384827590784141, 44.867783844556236 ], [ -93.38485443701029, 44.867824260793441 ], [ -93.384867100675109, 44.867867935182538 ], [ -93.384887362885067, 44.867893151848307 ], [ -93.384919582052802, 44.86791046784829 ], [ -93.38494248748276, 44.867929289713068 ], [ -93.384950280612813, 44.86795895743537 ] ] ] } },
{ "type": "Feature", "properties": { "kind": "green", "label": "Putting green" }, "geometry": { "type": "Polygon", "coordinates": [ [ [ -93.384350716753161, 44.868028492181189 ], [ -93.384339463094264, 44.868050130629783 ], [ -93.384316847215501, 44.86807451357712 ], [ -93.384282817011979, 44.868096228941525 ], [ -93.384252494629933, 44.868104432259692 ], [ -93.384233522697158, 44.868104495215199 ], [ -93.384211428738482, 44.868094644713217 ], [ -93.38418787935808, 44.868093845455817 ], [ -93.384137289530244, 44.868078013612752 ], [ -93.384067688578369, 44.868070047332303 ], [ -93.384031779798278, 44.868073198083145 ], [ -93.38392584872561, 44.868097426757487 ], [ -93.383891684608912, 44.868097544180635 ], [ -93.383834654224287, 44.868086932637503 ], [ -93.383788728529808, 44.868057236560773 ], [ -93.383769778061009, 44.86803854537564 ], [ -93.383758243418981, 44.868016981388863 ], [ -93.383757995884935, 44.867979186299053 ], [ -93.383767316808928, 44.867971045547073 ], [ -93.383769242501927, 44.86795754273291 ], [ -93.383795658574272, 44.867933153801694 ], [ -93.383847613961933, 44.867906962621376 ], [ -93.383901577489098, 44.86787068463876 ], [ -93.383958377102189, 44.867846189605352 ], [ -93.384003871823481, 44.867835232937807 ], [ -93.384068335440162, 44.867829192164173 ], [ -93.384204837946456, 44.867788648358314 ], [ -93.384269361298564, 44.867785728781186 ], [ -93.384307438428436, 44.867801799610298 ], [ -93.384334213963797, 44.867831412515002 ], [ -93.384336118379068, 44.867932218472887 ], [ -93.384350389773402, 44.867979891683738 ], [ -93.384350716753161, 44.868028492181189 ] ] ] } },
{ "type": "Feature", "properties": { "kind": "green", "label": "Range green" }, "geometry": { "type": "Polygon", "coordinates": [ [ [ -93.38233676416526, 44.86842265825274 ], [ -93.3823247378063, 44.868438417480313 ], [ -93.382329422195951, 44.868460488454019 ], [ -93.382306802464115, 44.868484862881154 ], [ -93.382234868199433, 44.868517511049163 ], [ -93.382208324357308, 44.868523000388343 ], [ -93.382185141245046, 44.868521698518826 ], [ -93.38216058520733, 44.868528863003796 ], [ -93.382147664050208, 44.868539408432341 ], [ -93.382128123444943, 44.868542886063764 ], [ -93.382090844715592, 44.868561202476322 ], [ -93.38207933973078, 44.868562750556386 ], [ -93.382068129960487, 44.868572080277602 ], [ -93.382045348691264, 44.868569457063636 ], [ -93.382031433219922, 44.868562543696868 ], [ -93.382018726385979, 44.868566844462073 ], [ -93.381995961492223, 44.868566920885655 ], [ -93.38198833856417, 44.86856155206479 ], [ -93.381984239435866, 44.86855058759388 ], [ -93.381953967565025, 44.868531960888575 ], [ -93.381957219373291, 44.868521595209067 ], [ -93.38194621158506, 44.868507682021956 ], [ -93.381949831511719, 44.868480676679425 ], [ -93.381961123848015, 44.868467143671438 ], [ -93.381970960619057, 44.868466914323463 ], [ -93.381978024006926, 44.868462527175971 ], [ -93.381980098616722, 44.868439942042279 ], [ -93.381995050643667, 44.868429219565122 ], [ -93.3820098435651, 44.868426472995829 ], [ -93.382021547157478, 44.868415628145009 ], [ -93.382078415201306, 44.86840193807317 ], [ -93.382105389434955, 44.868403215822227 ], [ -93.382123920434609, 44.868390980301612 ], [ -93.382156143867533, 44.86838404576644 ], [ -93.382173162711851, 44.868371911688897 ], [ -93.38221799182368, 44.868371687406281 ], [ -93.38223008977252, 44.868366319303348 ], [ -93.382244829662909, 44.868366255740177 ], [ -93.382257131302111, 44.868375628531631 ], [ -93.382271898649577, 44.868374282317959 ], [ -93.382313822798537, 44.868398441305715 ], [ -93.382319258316542, 44.868409473192401 ], [ -93.38233676416526, 44.86842265825274 ] ] ] } }
]
}
